{"type":"FeatureCollection","features":[{"type":"Feature","properties":{"parte":"tronco","nombre":"Río Mashcón","longitud_km":13.92,"osm_way_ids":[332783291,981139393,981139392,981139390,981139391,981140512],"fuente":"OpenStreetMap (datos del 03-10-2026)","licencia":"ODbL 1.0","atribucion":"© colaboradores de OpenStreetMap (openstreetmap.org/copyright)"},"geometry":{"type":"LineString","coordinates":[[-78.5275,-7.11483],[-78.5273,-7.11508],[-78.52732,-7.11559],[-78.52709,-7.11607],[-78.52688,-7.11734],[-78.52656,-7.11817],[-78.52596,-7.11905],[-78.52555,-7.11949],[-78.52464,-7.12],[-78.52449,-7.12022],[-78.52425,-7.12112],[-78.52414,-7.12196],[-78.52364,-7.12274],[-78.52334,-7.12413],[-78.52269,-7.12504],[-78.52258,-7.12542],[-78.52259,-7.1261],[-78.52223,-7.12708],[-78.52238,-7.128],[-78.52261,-7.12862],[-78.52276,-7.1289],[-78.52331,-7.12957],[-78.52376,-7.13064],[-78.52426,-7.13151],[-78.52441,-7.13206],[-78.52424,-7.133],[-78.5239,-7.1338],[-78.52389,-7.13437],[-78.52401,-7.13491],[-78.52394,-7.13577],[-78.52403,-7.1365],[-78.52398,-7.13717],[-78.52443,-7.13921],[-78.52456,-7.13949],[-78.52484,-7.13981],[-78.52396,-7.14064],[-78.52386,-7.14114],[-78.52202,-7.14265],[-78.52124,-7.14311],[-78.52065,-7.14333],[-78.52009,-7.14334],[-78.5198,-7.14341],[-78.51843,-7.14412],[-78.5182,-7.144],[-78.51771,-7.144],[-78.5168,-7.14377],[-78.516,-7.14368],[-78.515,-7.1434],[-78.51459,-7.14318],[-78.51416,-7.14274],[-78.51292,-7.14178],[-78.51191,-7.14126],[-78.51124,-7.14121],[-78.51087,-7.14108],[-78.51046,-7.14119],[-78.51008,-7.14138],[-78.50958,-7.14197],[-78.50926,-7.14219],[-78.50907,-7.14212],[-78.50886,-7.14221],[-78.50775,-7.14227],[-78.50591,-7.14192],[-78.50568,-7.14174],[-78.505,-7.1418],[-78.50484,-7.14174],[-78.50464,-7.1418],[-78.50394,-7.1417],[-78.50361,-7.14188],[-78.50228,-7.14229],[-78.50153,-7.14232],[-78.50068,-7.1426],[-78.49964,-7.14257],[-78.49946,-7.14266],[-78.499,-7.14313],[-78.49821,-7.14354],[-78.49522,-7.14408],[-78.49469,-7.14386],[-78.49424,-7.14353],[-78.49287,-7.14325],[-78.49236,-7.14296],[-78.49175,-7.14307],[-78.49097,-7.14301],[-78.49078,-7.14313],[-78.4903,-7.14393],[-78.48997,-7.14422],[-78.48961,-7.14442],[-78.48899,-7.14456],[-78.48793,-7.14512],[-78.48518,-7.14706],[-78.4843,-7.14805],[-78.48402,-7.14811],[-78.48333,-7.14803],[-78.48311,-7.14898],[-78.48289,-7.14922],[-78.48273,-7.14972],[-78.48273,-7.15007],[-78.483,-7.1504],[-78.48313,-7.15087],[-78.48301,-7.15096],[-78.48249,-7.15106],[-78.48234,-7.15127],[-78.48234,-7.1516],[-78.48244,-7.15202],[-78.48226,-7.15236],[-78.48201,-7.15266],[-78.48178,-7.15281],[-78.48137,-7.15291],[-78.48117,-7.15309],[-78.48108,-7.15336],[-78.48107,-7.15371],[-78.4809,-7.15411],[-78.47992,-7.15498],[-78.47997,-7.15533],[-78.47987,-7.1562],[-78.47978,-7.15632],[-78.47844,-7.15681],[-78.47832,-7.157],[-78.47836,-7.15726],[-78.47887,-7.1577],[-78.47894,-7.15867],[-78.47888,-7.15903],[-78.47841,-7.16004],[-78.47832,-7.16052],[-78.4782,-7.16265],[-78.47827,-7.16385],[-78.47823,-7.16479],[-78.47839,-7.16625],[-78.47814,-7.16721],[-78.4781,-7.16808],[-78.47797,-7.1683],[-78.47717,-7.16869],[-78.47684,-7.16977],[-78.47638,-7.17081],[-78.47572,-7.17103],[-78.47562,-7.17122],[-78.47553,-7.17175],[-78.47552,-7.17277],[-78.47541,-7.17321],[-78.475,-7.17407],[-78.47428,-7.17513],[-78.47407,-7.17531],[-78.4727,-7.17573],[-78.47251,-7.17587],[-78.47189,-7.17705],[-78.4719,-7.17729],[-78.47265,-7.17833],[-78.47272,-7.17883],[-78.4727,-7.17932],[-78.47261,-7.17967],[-78.47223,-7.18017],[-78.47119,-7.18098],[-78.47073,-7.18161],[-78.47042,-7.18232],[-78.47004,-7.18266],[-78.46802,-7.18362],[-78.4673,-7.18385],[-78.4665,-7.18439],[-78.46613,-7.18456],[-78.46493,-7.18435],[-78.46434,-7.18442],[-78.46351,-7.1848],[-78.46305,-7.18491],[-78.46242,-7.18475],[-78.46193,-7.18439],[-78.46168,-7.18435]]}},{"type":"Feature","properties":{"parte":"afluente","nombre":"Río Grande","longitud_km":10.08,"osm_way_ids":[1240350051,1240350059],"fuente":"OpenStreetMap (datos del 03-10-2026)","licencia":"ODbL 1.0","atribucion":"© colaboradores de OpenStreetMap (openstreetmap.org/copyright)"},"geometry":{"type":"LineString","coordinates":[[-78.53717,-7.04298],[-78.53702,-7.04352],[-78.53705,-7.04364],[-78.53731,-7.0438],[-78.53725,-7.04403],[-78.53732,-7.0443],[-78.53728,-7.0444],[-78.53696,-7.04461],[-78.53687,-7.04502],[-78.53696,-7.04528],[-78.53694,-7.04551],[-78.53689,-7.04564],[-78.53662,-7.04588],[-78.53652,-7.04688],[-78.53634,-7.04699],[-78.53634,-7.04727],[-78.53616,-7.04733],[-78.53595,-7.04752],[-78.53579,-7.04825],[-78.53548,-7.04868],[-78.53503,-7.04896],[-78.53476,-7.04946],[-78.53453,-7.04958],[-78.53442,-7.04978],[-78.53444,-7.05025],[-78.53427,-7.05059],[-78.53449,-7.05099],[-78.53429,-7.05176],[-78.53391,-7.05223],[-78.53432,-7.05245],[-78.53403,-7.05313],[-78.53412,-7.05354],[-78.53406,-7.05382],[-78.53387,-7.05416],[-78.53394,-7.05523],[-78.53387,-7.05574],[-78.53403,-7.05609],[-78.53391,-7.05629],[-78.53391,-7.05691],[-78.53366,-7.05739],[-78.53367,-7.05774],[-78.53352,-7.05794],[-78.53343,-7.05825],[-78.53352,-7.05851],[-78.53297,-7.05927],[-78.53292,-7.05984],[-78.53278,-7.0602],[-78.5326,-7.06027],[-78.53224,-7.06085],[-78.53222,-7.06111],[-78.53207,-7.0612],[-78.53187,-7.06119],[-78.53173,-7.06133],[-78.53157,-7.06131],[-78.5312,-7.06159],[-78.53113,-7.06156],[-78.531,-7.06175],[-78.53083,-7.06184],[-78.53074,-7.06204],[-78.53054,-7.06219],[-78.53044,-7.06265],[-78.53013,-7.06296],[-78.53003,-7.06336],[-78.53008,-7.06414],[-78.52988,-7.06455],[-78.53,-7.06469],[-78.52991,-7.06486],[-78.53009,-7.06501],[-78.5303,-7.06544],[-78.53026,-7.06556],[-78.53034,-7.06584],[-78.53048,-7.06592],[-78.53066,-7.06633],[-78.53077,-7.06642],[-78.5307,-7.06658],[-78.53083,-7.06696],[-78.53099,-7.06705],[-78.53095,-7.06783],[-78.5311,-7.06796],[-78.53093,-7.06838],[-78.53097,-7.06897],[-78.53049,-7.07048],[-78.53052,-7.07175],[-78.53013,-7.07256],[-78.53019,-7.07277],[-78.53012,-7.07293],[-78.53013,-7.0733],[-78.52988,-7.07362],[-78.5296,-7.07381],[-78.52966,-7.07406],[-78.52943,-7.07462],[-78.52928,-7.07479],[-78.52871,-7.07507],[-78.52832,-7.07543],[-78.52803,-7.07586],[-78.52786,-7.07591],[-78.52783,-7.07628],[-78.52804,-7.07666],[-78.52801,-7.07674],[-78.52772,-7.07689],[-78.52763,-7.07708],[-78.52721,-7.07737],[-78.52714,-7.07779],[-78.52728,-7.07809],[-78.52724,-7.07831],[-78.52684,-7.07856],[-78.52643,-7.07948],[-78.52639,-7.07972],[-78.52646,-7.0799],[-78.52679,-7.0802],[-78.52687,-7.08038],[-78.52684,-7.08053],[-78.5266,-7.08081],[-78.52653,-7.0811],[-78.52658,-7.08135],[-78.52634,-7.08168],[-78.52611,-7.08183],[-78.52565,-7.08207],[-78.52526,-7.08211],[-78.52499,-7.08226],[-78.52479,-7.08252],[-78.52398,-7.08317],[-78.52378,-7.08363],[-78.52292,-7.084],[-78.52279,-7.08415],[-78.52265,-7.08474],[-78.52268,-7.08536],[-78.5226,-7.08555],[-78.52226,-7.08545],[-78.5218,-7.08556],[-78.52163,-7.0859],[-78.52169,-7.08606],[-78.52194,-7.0862],[-78.52195,-7.08643],[-78.52167,-7.08682],[-78.521,-7.08742],[-78.52095,-7.08766],[-78.52103,-7.0877],[-78.52108,-7.08786],[-78.521,-7.08811],[-78.52031,-7.08846],[-78.5202,-7.0886],[-78.52026,-7.08888],[-78.52039,-7.08891],[-78.52054,-7.08916],[-78.52094,-7.08944],[-78.521,-7.08959],[-78.52103,-7.08978],[-78.5208,-7.09031],[-78.52087,-7.0905],[-78.52104,-7.09066],[-78.52133,-7.09143],[-78.52127,-7.09193],[-78.52134,-7.09228],[-78.52111,-7.09291],[-78.52134,-7.09338],[-78.52139,-7.09379],[-78.52175,-7.0945],[-78.52173,-7.09474],[-78.52192,-7.09497],[-78.52193,-7.09517],[-78.52181,-7.09549],[-78.52188,-7.09565],[-78.5223,-7.09606],[-78.52232,-7.09647],[-78.52216,-7.097],[-78.52156,-7.09759],[-78.52161,-7.0978],[-78.52213,-7.09812],[-78.5222,-7.09842],[-78.52346,-7.10033],[-78.52365,-7.10094],[-78.52367,-7.10179],[-78.52351,-7.10216],[-78.52322,-7.10245],[-78.52319,-7.1029],[-78.52338,-7.10317],[-78.52364,-7.10333],[-78.52364,-7.10351],[-78.52343,-7.10386],[-78.52338,-7.10416],[-78.52281,-7.10462],[-78.52281,-7.1047],[-78.52303,-7.10492],[-78.52302,-7.10499],[-78.52282,-7.10522],[-78.52231,-7.10536],[-78.52229,-7.10551],[-78.52238,-7.1057],[-78.52263,-7.10583],[-78.52283,-7.10585],[-78.52351,-7.10555],[-78.52367,-7.10555],[-78.52379,-7.10567],[-78.52399,-7.10677],[-78.52411,-7.10702],[-78.52463,-7.10755],[-78.52478,-7.10839],[-78.52528,-7.10851],[-78.526,-7.10828],[-78.52637,-7.1084],[-78.52665,-7.10916],[-78.52695,-7.1093],[-78.52738,-7.10969],[-78.52744,-7.10989],[-78.52743,-7.11033],[-78.52715,-7.11096],[-78.52714,-7.11131],[-78.5274,-7.11201],[-78.5274,-7.11216],[-78.52709,-7.11296],[-78.52693,-7.1137],[-78.5272,-7.1143],[-78.52723,-7.11462],[-78.5275,-7.11483]]}},{"type":"Feature","properties":{"parte":"afluente","nombre":"Río Porcón","longitud_km":3.2,"osm_way_ids":[1240350066],"fuente":"OpenStreetMap (datos del 03-10-2026)","licencia":"ODbL 1.0","atribucion":"© colaboradores de OpenStreetMap (openstreetmap.org/copyright)"},"geometry":{"type":"LineString","coordinates":[[-78.54899,-7.10264],[-78.54872,-7.10287],[-78.54864,-7.10307],[-78.54806,-7.10332],[-78.54795,-7.10325],[-78.54762,-7.10323],[-78.54735,-7.10274],[-78.54716,-7.10259],[-78.54674,-7.10268],[-78.54648,-7.10292],[-78.54579,-7.1026],[-78.54554,-7.10259],[-78.54486,-7.10318],[-78.54449,-7.10334],[-78.54402,-7.10329],[-78.54329,-7.10282],[-78.5423,-7.10288],[-78.542,-7.10314],[-78.54171,-7.10377],[-78.54071,-7.1043],[-78.54009,-7.10431],[-78.53978,-7.10447],[-78.5395,-7.1044],[-78.53906,-7.10468],[-78.53773,-7.10513],[-78.53701,-7.1052],[-78.53674,-7.10541],[-78.53637,-7.10549],[-78.53556,-7.10594],[-78.53483,-7.10588],[-78.53437,-7.1061],[-78.53287,-7.10648],[-78.53256,-7.10689],[-78.53217,-7.10709],[-78.53188,-7.10741],[-78.53121,-7.1085],[-78.53087,-7.10891],[-78.5307,-7.10935],[-78.53034,-7.10975],[-78.53017,-7.11012],[-78.53001,-7.11083],[-78.52962,-7.11124],[-78.52896,-7.11227],[-78.52894,-7.11275],[-78.52862,-7.11383],[-78.5275,-7.11483]]}},{"type":"Feature","properties":{"parte":"afluente","nombre":"Río San Lucas","longitud_km":7.02,"osm_way_ids":[981320957,1249304355,981324544,981324543,981320961,981320960,981320958,1170497113,1170497112,438306421,981104929,981104928],"fuente":"OpenStreetMap (datos del 03-10-2026)","licencia":"ODbL 1.0","atribucion":"© colaboradores de OpenStreetMap (openstreetmap.org/copyright)"},"geometry":{"type":"LineString","coordinates":[[-78.53496,-7.15954],[-78.53473,-7.15942],[-78.53457,-7.15943],[-78.5344,-7.15958],[-78.53423,-7.1596],[-78.53394,-7.15944],[-78.53345,-7.15954],[-78.53294,-7.15939],[-78.53261,-7.15913],[-78.53256,-7.1589],[-78.53246,-7.15884],[-78.53235,-7.15885],[-78.53216,-7.1591],[-78.53204,-7.15909],[-78.53188,-7.15866],[-78.53169,-7.1586],[-78.53152,-7.15861],[-78.53104,-7.15885],[-78.53071,-7.1587],[-78.53025,-7.15876],[-78.53001,-7.15858],[-78.52963,-7.15863],[-78.5294,-7.15855],[-78.52867,-7.158],[-78.52851,-7.15771],[-78.52825,-7.15776],[-78.52816,-7.15772],[-78.52798,-7.15743],[-78.52751,-7.1572],[-78.52714,-7.15689],[-78.52683,-7.15679],[-78.52658,-7.15654],[-78.52631,-7.15647],[-78.52624,-7.15631],[-78.52627,-7.15604],[-78.52605,-7.15596],[-78.52583,-7.15605],[-78.52571,-7.15567],[-78.52536,-7.15527],[-78.52432,-7.15438],[-78.52383,-7.15435],[-78.52362,-7.15411],[-78.52342,-7.15403],[-78.52266,-7.15403],[-78.52205,-7.1536],[-78.52174,-7.15362],[-78.52139,-7.1538],[-78.52041,-7.15356],[-78.52003,-7.15365],[-78.51962,-7.15358],[-78.51932,-7.15368],[-78.51861,-7.15366],[-78.5182,-7.15378],[-78.51794,-7.15378],[-78.51598,-7.15359],[-78.51507,-7.1536],[-78.51353,-7.1535],[-78.51127,-7.1541],[-78.5104,-7.15446],[-78.51004,-7.15468],[-78.50968,-7.15511],[-78.50874,-7.15583],[-78.50769,-7.15734],[-78.50698,-7.15799],[-78.50661,-7.15901],[-78.50633,-7.15926],[-78.50251,-7.16015],[-78.50003,-7.16051],[-78.49785,-7.16073],[-78.49485,-7.16145],[-78.4907,-7.16219],[-78.48379,-7.16413],[-78.4809,-7.1645],[-78.47825,-7.16432]]}},{"type":"Feature","properties":{"parte":"rotulo","nombre":"Río Mashcón","nota":"tronco simplificado a 120 m: guía para escribir el nombre sobre la línea"},"geometry":{"type":"LineString","coordinates":[[-78.5275,-7.11483],[-78.52223,-7.12708],[-78.52441,-7.13206],[-78.52386,-7.14114],[-78.51843,-7.14412],[-78.51087,-7.14108],[-78.49522,-7.14408],[-78.49097,-7.14301],[-78.48333,-7.14803],[-78.48313,-7.15087],[-78.47832,-7.157],[-78.4781,-7.16808],[-78.47189,-7.17705],[-78.47261,-7.17967],[-78.46613,-7.18456],[-78.46168,-7.18435]]}}]}