{"type":"FeatureCollection","features":[{"type":"Feature","properties":{"nombre":"Cuenca del río Mashcón hasta su unión con el Chonta","area_km2":318.4,"tipo_dato":"estimación SIMPAC (Copernicus GLO-30, ríos OSM marcados en el terreno)","validacion":"87 % de coincidencia con HydroBASINS nivel 12 (IDs 6120399750 y 6121118080); 98 % del Mashcón de OSM dentro (100 % con el ajuste), 0 % del Chonta","uso":"solo para decidir qué avisos de lluvia y qué estaciones de lluvia cuentan para el río; no se dibuja","licencia":"ODbL 1.0 (derivado de OSM) con aviso Copernicus","atribucion":"Elaborado con Copernicus WorldDEM-30 © DLR e.V. 2010-2014 y © Airbus Defence and Space GmbH 2014-2018, provisto bajo COPERNICUS por la Unión Europea y la ESA; todos los derechos reservados. © colaboradores de OpenStreetMap (openstreetmap.org/copyright)","ajuste":"Unida con una franja de 200 m alrededor del tronco del río: la estimación dejaba fuera los últimos 337 m del Mashcón antes de su unión con el Chonta (03-10-2026)."},"geometry":{"type":"MultiPolygon","coordinates":[[[[-78.62833,-7.13139],[-78.62531,-7.12853],[-78.62472,-7.12667],[-78.62056,-7.12611],[-78.61872,-7.12693],[-78.61335,-7.12157],[-78.61371,-7.1203],[-78.61528,-7.12028],[-78.6175,-7.11917],[-78.6175,-7.11639],[-78.61639,-7.11515],[-78.61814,-7.11336],[-78.61889,-7.11333],[-78.61917,-7.1125],[-78.61861,-7.10889],[-78.61639,-7.10778],[-78.61511,-7.10776],[-78.61444,-7.10694],[-78.61314,-7.10691],[-78.61306,-7.10583],[-78.61028,-7.10291],[-78.61083,-7.10083],[-78.60973,-7.09987],[-78.60973,-7.09709],[-78.6125,-7.09417],[-78.61361,-7.08722],[-78.61139,-7.08361],[-78.60835,-7.08183],[-78.60889,-7.07612],[-78.60806,-7.07306],[-78.60694,-7.07194],[-78.6059,-7.0719],[-78.60528,-7.07],[-78.60341,-7.06969],[-78.60222,-7.06806],[-78.60006,-7.06831],[-78.6,-7.06722],[-78.59778,-7.065],[-78.59614,-7.06436],[-78.59583,-7.06194],[-78.5939,-7.05987],[-78.59391,-7.05898],[-78.59528,-7.05778],[-78.59589,-7.05616],[-78.5975,-7.05639],[-78.5985,-7.05528],[-78.59944,-7.05611],[-78.601,-7.05557],[-78.60165,-7.05648],[-78.60028,-7.05861],[-78.60056,-7.05944],[-78.60389,-7.05972],[-78.60639,-7.05861],[-78.60722,-7.0575],[-78.60585,-7.05656],[-78.60639,-7.05389],[-78.6053,-7.05268],[-78.605,-7.05139],[-78.60361,-7.05028],[-78.6023,-7.05025],[-78.60111,-7.04833],[-78.6,-7.04778],[-78.59794,-7.04861],[-78.59562,-7.04746],[-78.59197,-7.04379],[-78.59278,-7.04222],[-78.59083,-7.04056],[-78.58979,-7.04051],[-78.58836,-7.03881],[-78.58806,-7.03694],[-78.58667,-7.03611],[-78.58596,-7.03673],[-78.58426,-7.03609],[-78.58056,-7.03278],[-78.5798,-7.03303],[-78.57726,-7.03077],[-78.5775,-7.02861],[-78.57667,-7.02472],[-78.575,-7.02319],[-78.57583,-7.02139],[-78.57417,-7.01708],[-78.57444,-7.01528],[-78.5667,-7.00798],[-78.56694,-7.00667],[-78.56639,-7.00472],[-78.565,-7.00347],[-78.565,-6.99972],[-78.56361,-6.99806],[-78.55706,-6.99776],[-78.55559,-6.99631],[-78.55528,-6.995],[-78.55346,-6.99534],[-78.55278,-6.99472],[-78.54711,-6.99472],[-78.54556,-6.99389],[-78.54345,-6.99388],[-78.54194,-6.99194],[-78.54,-6.99111],[-78.53589,-6.99078],[-78.535,-6.98905],[-78.53611,-6.98778],[-78.53167,-6.98306],[-78.52956,-6.98332],[-78.52889,-6.9825],[-78.52811,-6.98272],[-78.52805,-6.98167],[-78.52654,-6.98277],[-78.52487,-6.98277],[-78.52361,-6.98056],[-78.52083,-6.97944],[-78.5173,-6.97969],[-78.5164,-6.97789],[-78.51917,-6.97556],[-78.5189,-6.97346],[-78.52111,-6.96944],[-78.5192,-6.9677],[-78.51944,-6.96667],[-78.51647,-6.96608],[-78.51444,-6.96361],[-78.51278,-6.96333],[-78.51127,-6.96417],[-78.51028,-6.96306],[-78.50917,-6.96333],[-78.50778,-6.96444],[-78.50775,-6.96714],[-78.50639,-6.96778],[-78.50638,-6.96906],[-78.5055,-6.97022],[-78.50444,-6.97028],[-78.50506,-6.97291],[-78.50466,-6.97774],[-78.50319,-6.97836],[-78.50278,-6.97667],[-78.50083,-6.97667],[-78.50044,-6.97721],[-78.49639,-6.97833],[-78.49432,-6.98027],[-78.49111,-6.97944],[-78.49194,-6.98194],[-78.49361,-6.98361],[-78.49528,-6.98472],[-78.49655,-6.98418],[-78.49694,-6.98485],[-78.49694,-6.98682],[-78.49556,-6.98806],[-78.49583,-6.98984],[-78.49528,-6.99056],[-78.49639,-6.99459],[-78.49611,-6.99806],[-78.49667,-6.99917],[-78.49917,-7.00111],[-78.50159,-7.0017],[-78.50417,-7.00444],[-78.50483,-7.00362],[-78.50603,-7.00364],[-78.50856,-7.00561],[-78.50889,-7.00694],[-78.50972,-7.00737],[-78.50861,-7.00889],[-78.50885,-7.01049],[-78.50611,-7.01222],[-78.50607,-7.01299],[-78.50444,-7.01444],[-78.50416,-7.01709],[-78.50278,-7.02028],[-78.50388,-7.0215],[-78.50389,-7.02291],[-78.50222,-7.02444],[-78.50331,-7.02796],[-78.50186,-7.02969],[-78.50028,-7.02944],[-78.4975,-7.03194],[-78.49861,-7.03268],[-78.49778,-7.035],[-78.4984,-7.03624],[-78.49778,-7.04028],[-78.50107,-7.04312],[-78.50137,-7.04463],[-78.49878,-7.0461],[-78.49778,-7.04611],[-78.49194,-7.05222],[-78.49194,-7.055],[-78.49275,-7.05631],[-78.48611,-7.06167],[-78.48492,-7.06358],[-78.48348,-7.06389],[-78.4825,-7.06278],[-78.48065,-7.06284],[-78.48028,-7.06222],[-78.47889,-7.0625],[-78.47692,-7.06713],[-78.47528,-7.06833],[-78.47464,-7.06969],[-78.47322,-7.07],[-78.47194,-7.06944],[-78.46852,-7.07284],[-78.46777,-7.07222],[-78.46528,-7.07222],[-78.46373,-7.07305],[-78.46028,-7.07278],[-78.45938,-7.0744],[-78.45833,-7.07444],[-78.45611,-7.07639],[-78.45493,-7.07857],[-78.45278,-7.07917],[-78.45194,-7.08028],[-78.45194,-7.08361],[-78.45276,-7.08456],[-78.45278,-7.08556],[-78.45556,-7.08889],[-78.45722,-7.08848],[-78.45639,-7.09513],[-78.45556,-7.09667],[-78.45692,-7.09843],[-78.45694,-7.09958],[-78.45634,-7.10106],[-78.45472,-7.10167],[-78.45472,-7.10361],[-78.45583,-7.10485],[-78.45583,-7.10694],[-78.45749,-7.10874],[-78.4575,-7.11111],[-78.45833,-7.11207],[-78.45889,-7.11667],[-78.45999,-7.11874],[-78.46028,-7.12139],[-78.46357,-7.12451],[-78.46444,-7.12667],[-78.46553,-7.12648],[-78.465,-7.12778],[-78.46604,-7.1281],[-78.46611,-7.12874],[-78.46528,-7.12889],[-78.465,-7.12972],[-78.46659,-7.13031],[-78.46694,-7.13111],[-78.46771,-7.13081],[-78.46963,-7.13141],[-78.47167,-7.13361],[-78.47327,-7.13393],[-78.47306,-7.13556],[-78.47386,-7.13591],[-78.47389,-7.13722],[-78.47475,-7.13785],[-78.4741,-7.13885],[-78.47306,-7.13917],[-78.47301,-7.14382],[-78.46972,-7.14389],[-78.46917,-7.14444],[-78.46944,-7.14667],[-78.47028,-7.14711],[-78.46944,-7.14834],[-78.4703,-7.14932],[-78.46944,-7.15],[-78.46944,-7.15139],[-78.47055,-7.1535],[-78.47,-7.15444],[-78.47028,-7.15528],[-78.47108,-7.15536],[-78.47111,-7.15667],[-78.47194,-7.15761],[-78.46944,-7.15917],[-78.46971,-7.16044],[-78.46889,-7.16056],[-78.46861,-7.16139],[-78.46944,-7.16235],[-78.46944,-7.1643],[-78.46861,-7.16444],[-78.46806,-7.16639],[-78.46886,-7.16647],[-78.46944,-7.16889],[-78.47055,-7.17041],[-78.47028,-7.17194],[-78.47083,-7.17428],[-78.4697,-7.17713],[-78.46833,-7.17861],[-78.46859,-7.17935],[-78.4675,-7.18028],[-78.46747,-7.18188],[-78.46582,-7.18267],[-78.46309,-7.183],[-78.46197,-7.18257],[-78.46093,-7.18271],[-78.45993,-7.18389],[-78.46021,-7.18541],[-78.46295,-7.18671],[-78.47098,-7.18556],[-78.47246,-7.18673],[-78.47306,-7.18806],[-78.47417,-7.18778],[-78.476,-7.18611],[-78.47798,-7.18697],[-78.47889,-7.18806],[-78.48028,-7.18806],[-78.48095,-7.18724],[-78.48265,-7.18695],[-78.48312,-7.18763],[-78.48278,-7.18917],[-78.48362,-7.19056],[-78.48983,-7.18799],[-78.4925,-7.18889],[-78.49372,-7.18696],[-78.49824,-7.18641],[-78.49916,-7.18737],[-78.49917,-7.19111],[-78.49972,-7.19263],[-78.49917,-7.19306],[-78.49941,-7.19409],[-78.4975,-7.19611],[-78.49691,-7.19825],[-78.49611,-7.19861],[-78.49639,-7.20178],[-78.49528,-7.20278],[-78.49555,-7.20595],[-78.495,-7.2075],[-78.50028,-7.21306],[-78.5049,-7.21447],[-78.50611,-7.21583],[-78.50936,-7.21697],[-78.51167,-7.21944],[-78.51348,-7.21834],[-78.51621,-7.21833],[-78.51889,-7.21944],[-78.52017,-7.21918],[-78.52111,-7.22028],[-78.52404,-7.21966],[-78.52528,-7.22028],[-78.52861,-7.22028],[-78.52928,-7.21946],[-78.53111,-7.21944],[-78.53157,-7.21889],[-78.5375,-7.22],[-78.53861,-7.21917],[-78.53866,-7.21672],[-78.54111,-7.21639],[-78.54361,-7.21444],[-78.5439,-7.2115],[-78.54528,-7.21],[-78.5453,-7.20871],[-78.54611,-7.20806],[-78.54671,-7.20618],[-78.54778,-7.20556],[-78.54782,-7.20479],[-78.55,-7.20472],[-78.55172,-7.20228],[-78.55528,-7.19917],[-78.55529,-7.19763],[-78.55694,-7.19333],[-78.55585,-7.19211],[-78.5559,-7.19087],[-78.55848,-7.19],[-78.5625,-7.18972],[-78.56472,-7.18833],[-78.56644,-7.18505],[-78.56876,-7.18389],[-78.57129,-7.18419],[-78.57389,-7.18694],[-78.57611,-7.1875],[-78.57861,-7.18583],[-78.57982,-7.18335],[-78.58056,-7.18389],[-78.5825,-7.18389],[-78.58318,-7.18223],[-78.58722,-7.18222],[-78.58921,-7.17895],[-78.59041,-7.17834],[-78.59194,-7.17861],[-78.59289,-7.17806],[-78.59417,-7.17861],[-78.59611,-7.17473],[-78.59447,-7.17379],[-78.59397,-7.17059],[-78.59961,-7.16972],[-78.60389,-7.16972],[-78.60583,-7.16889],[-78.60611,-7.16806],[-78.60199,-7.16382],[-78.60167,-7.16287],[-78.605,-7.16],[-78.60501,-7.15846],[-78.60583,-7.15694],[-78.60531,-7.15369],[-78.60833,-7.15111],[-78.60835,-7.14982],[-78.60978,-7.14839],[-78.61417,-7.14583],[-78.61508,-7.14475],[-78.61806,-7.145],[-78.61889,-7.14472],[-78.619,-7.1439],[-78.62083,-7.14389],[-78.62167,-7.14333],[-78.62333,-7.14167],[-78.62392,-7.13952],[-78.62528,-7.13833],[-78.62697,-7.13287],[-78.62833,-7.13194],[-78.62833,-7.13139]]]]}}]}