{"type":"FeatureCollection","features":[{"type":"Feature","properties":{"clave":"mashcon:faja:021-2021-ANA-AAA.M:derecha","tipo":"faja","subtipo":"derecha","orden":10,"nombre":"Límite de la faja marginal (derecha)","texto":"Límite de la faja marginal del río Mashcón aprobada por ANA (RD 021-2021-ANA-AAA.M, 11/01/2021; método: modelamiento hidráulico). Es el espacio del río más una franja de protección; no es un mapa de inundación.","fuente":"ANA - DSNIRH, faja marginal (RD 021-2021-ANA-AAA.M)","fuente_url":"https://geosnirh.ana.gob.pe/server/rest/services/P%C3%BAblico/FajaMarginal/MapServer/127","licencia":"Información pública (copyright del servicio: ANA - DSNIRH)","atribucion":"Fuente: ANA - DSNIRH (faja marginal aprobada por resolución directoral).","metodo":"Hitos y vértices oficiales del servicio de ANA, ordenados a lo largo del río por SIMPAC y unidos en una línea por margen (simplificada a 2 m).","fecha_fuente":"2021-01-11","area_km2":null},"geometry":{"type":"MultiLineString","coordinates":[[[-78.52806,-7.11463],[-78.5277,-7.11504],[-78.52753,-7.11538],[-78.52723,-7.11635],[-78.527,-7.11753],[-78.5268,-7.11806],[-78.52596,-7.11932],[-78.52573,-7.11953],[-78.52531,-7.11984],[-78.5252,-7.11996],[-78.52505,-7.12023],[-78.52491,-7.12038],[-78.52458,-7.12061],[-78.52451,-7.12074],[-78.52439,-7.12122],[-78.52431,-7.12191],[-78.52424,-7.12215],[-78.52411,-7.12241],[-78.52391,-7.12269],[-78.52381,-7.1229],[-78.52356,-7.12405],[-78.52344,-7.12435],[-78.52329,-7.1246],[-78.52294,-7.12501],[-78.52281,-7.12521],[-78.52274,-7.12553],[-78.52273,-7.12606],[-78.5227,-7.12627],[-78.52248,-7.12681],[-78.52241,-7.12715],[-78.52246,-7.12743],[-78.52302,-7.12875],[-78.5235,-7.12947],[-78.52455,-7.13166],[-78.5246,-7.13204],[-78.52456,-7.13238],[-78.52446,-7.13288],[-78.52421,-7.13356],[-78.52413,-7.13386],[-78.52419,-7.13486],[-78.5242,-7.13695],[-78.52423,-7.13728],[-78.52434,-7.13776],[-78.52461,-7.13875],[-78.52492,-7.13948],[-78.52503,-7.13988],[-78.52496,-7.14016],[-78.52483,-7.14042],[-78.52465,-7.14074],[-78.52428,-7.14114],[-78.52341,-7.14176],[-78.52263,-7.14242],[-78.52161,-7.14319],[-78.52115,-7.14339],[-78.52066,-7.14352],[-78.5202,-7.1436],[-78.51985,-7.1437],[-78.5188,-7.14417],[-78.51853,-7.14423],[-78.51818,-7.14421],[-78.51712,-7.14404],[-78.51542,-7.14368],[-78.51494,-7.14348],[-78.51438,-7.14318],[-78.51374,-7.14265],[-78.51282,-7.14206],[-78.51235,-7.14172],[-78.51186,-7.14149],[-78.51095,-7.14132],[-78.51066,-7.14134],[-78.51048,-7.14143],[-78.50972,-7.14212],[-78.50944,-7.14227],[-78.50921,-7.14234],[-78.5087,-7.14243],[-78.50808,-7.14246],[-78.50734,-7.14244],[-78.50698,-7.1424],[-78.50545,-7.14199],[-78.50416,-7.14197],[-78.50384,-7.142],[-78.50245,-7.14243],[-78.50088,-7.14269],[-78.50035,-7.14273],[-78.49997,-7.14272],[-78.49977,-7.14276],[-78.49961,-7.14286],[-78.49917,-7.14326],[-78.49849,-7.14363],[-78.49802,-7.14378],[-78.4969,-7.14399],[-78.49527,-7.14422],[-78.49504,-7.14419],[-78.49477,-7.14409],[-78.49383,-7.14361],[-78.4927,-7.14332],[-78.492,-7.14323],[-78.49121,-7.14321],[-78.49095,-7.1433],[-78.49042,-7.14402],[-78.49009,-7.14433],[-78.4895,-7.14459],[-78.48881,-7.14483],[-78.48771,-7.14539],[-78.48525,-7.14724],[-78.48469,-7.14787],[-78.48443,-7.14812],[-78.4843,-7.1482],[-78.48409,-7.14825],[-78.4836,-7.14825],[-78.4835,-7.14827],[-78.48343,-7.14831],[-78.48339,-7.14837],[-78.48336,-7.1489],[-78.48329,-7.14904],[-78.48317,-7.14916],[-78.48303,-7.1494],[-78.48293,-7.14979],[-78.48296,-7.15006],[-78.48334,-7.15065],[-78.48341,-7.1509]]]}},{"type":"Feature","properties":{"clave":"mashcon:faja:021-2021-ANA-AAA.M:izquierda","tipo":"faja","subtipo":"izquierda","orden":10,"nombre":"Límite de la faja marginal (izquierda)","texto":"Límite de la faja marginal del río Mashcón aprobada por ANA (RD 021-2021-ANA-AAA.M, 11/01/2021; método: modelamiento hidráulico). Es el espacio del río más una franja de protección; no es un mapa de inundación.","fuente":"ANA - DSNIRH, faja marginal (RD 021-2021-ANA-AAA.M)","fuente_url":"https://geosnirh.ana.gob.pe/server/rest/services/P%C3%BAblico/FajaMarginal/MapServer/127","licencia":"Información pública (copyright del servicio: ANA - DSNIRH)","atribucion":"Fuente: ANA - DSNIRH (faja marginal aprobada por resolución directoral).","metodo":"Hitos y vértices oficiales del servicio de ANA, ordenados a lo largo del río por SIMPAC y unidos en una línea por margen (simplificada a 2 m).","fecha_fuente":"2021-01-11","area_km2":null},"geometry":{"type":"MultiLineString","coordinates":[[[-78.5271,-7.11454],[-78.52716,-7.11494],[-78.52716,-7.11537],[-78.52698,-7.1157],[-78.52682,-7.11612],[-78.52672,-7.1173],[-78.52663,-7.11759],[-78.52592,-7.11873],[-78.52578,-7.11892],[-78.52553,-7.11913],[-78.52474,-7.1196],[-78.52456,-7.11977],[-78.52446,-7.11991],[-78.52434,-7.12021],[-78.52414,-7.12088],[-78.52409,-7.12114],[-78.52406,-7.12161],[-78.52397,-7.12192],[-78.52357,-7.12252],[-78.52343,-7.1228],[-78.52329,-7.12356],[-78.52318,-7.12397],[-78.52299,-7.1243],[-78.52271,-7.12466],[-78.52242,-7.1251],[-78.52237,-7.12532],[-78.5224,-7.12582],[-78.52229,-7.12633],[-78.52217,-7.12667],[-78.52209,-7.12698],[-78.52216,-7.12761],[-78.52223,-7.12791],[-78.52241,-7.12841],[-78.52252,-7.12865],[-78.52283,-7.12912],[-78.52311,-7.12944],[-78.5233,-7.12977],[-78.52388,-7.13104],[-78.52408,-7.13153],[-78.52417,-7.13201],[-78.52417,-7.13227],[-78.5241,-7.13271],[-78.52393,-7.13317],[-78.52379,-7.13345],[-78.52371,-7.1338],[-78.5237,-7.1344],[-78.52384,-7.13623],[-78.52385,-7.13687],[-78.52393,-7.13739],[-78.52411,-7.13801],[-78.52423,-7.13893],[-78.52429,-7.13913],[-78.52441,-7.1394],[-78.5246,-7.13968],[-78.52463,-7.13982],[-78.5246,-7.13989],[-78.52402,-7.14046],[-78.52383,-7.14073],[-78.52364,-7.1411],[-78.5232,-7.14155],[-78.52174,-7.14269],[-78.52147,-7.14286],[-78.52118,-7.14298],[-78.52022,-7.14316],[-78.51987,-7.14326],[-78.5188,-7.14372],[-78.51841,-7.14381],[-78.51811,-7.1438],[-78.51567,-7.1433],[-78.51521,-7.14318],[-78.51465,-7.14291],[-78.51417,-7.14236],[-78.51357,-7.14186],[-78.51291,-7.14142],[-78.51235,-7.14114],[-78.51194,-7.14099],[-78.51112,-7.1409],[-78.51066,-7.14094],[-78.51043,-7.14101],[-78.51024,-7.14111],[-78.50978,-7.14151],[-78.50935,-7.14183],[-78.50905,-7.14197],[-78.50869,-7.14207],[-78.50835,-7.1421],[-78.50783,-7.14208],[-78.507,-7.14193],[-78.50589,-7.14163],[-78.5054,-7.14154],[-78.50406,-7.14149],[-78.5038,-7.14151],[-78.50356,-7.14158],[-78.50286,-7.14191],[-78.50245,-7.14203],[-78.50142,-7.14218],[-78.50085,-7.14231],[-78.49966,-7.14243],[-78.49945,-7.14251],[-78.49886,-7.14304],[-78.49869,-7.14314],[-78.49828,-7.1433],[-78.49752,-7.14352],[-78.49547,-7.14385],[-78.49521,-7.14387],[-78.49492,-7.14377],[-78.49439,-7.1433],[-78.49418,-7.14319],[-78.49272,-7.14283],[-78.49228,-7.14278],[-78.49104,-7.14283],[-78.49081,-7.14295],[-78.49036,-7.14335],[-78.49,-7.14374],[-78.48959,-7.14405],[-78.48877,-7.14443],[-78.48803,-7.14484],[-78.48765,-7.14508],[-78.4856,-7.14664],[-78.48521,-7.14686],[-78.48481,-7.14721],[-78.48426,-7.14783],[-78.48413,-7.14789],[-78.48399,-7.1479],[-78.48341,-7.14785],[-78.48327,-7.1479],[-78.48318,-7.14798],[-78.48311,-7.14813],[-78.48306,-7.14845],[-78.48307,-7.14879],[-78.48288,-7.14901],[-78.48279,-7.14915],[-78.48265,-7.14973],[-78.48266,-7.14998],[-78.48273,-7.15022],[-78.48304,-7.15071],[-78.48304,-7.15078],[-78.483,-7.15084]]]}},{"type":"Feature","properties":{"clave":"mashcon:faja:0472-2026-ANA-AAA.M:izquierda","tipo":"faja","subtipo":"izquierda","orden":10,"nombre":"Límite de la faja marginal (izquierda)","texto":"Límite de la faja marginal del río Mashcón aprobada por ANA (RD 0472-2026-ANA-AAA.M, 28/04/2026; método: huella máxima). Es el espacio del río más una franja de protección; no es un mapa de inundación.","fuente":"ANA - DSNIRH, faja marginal (RD 0472-2026-ANA-AAA.M)","fuente_url":"https://geosnirh.ana.gob.pe/server/rest/services/P%C3%BAblico/FajaMarginal/MapServer/127","licencia":"Información pública (copyright del servicio: ANA - DSNIRH)","atribucion":"Fuente: ANA - DSNIRH (faja marginal aprobada por resolución directoral).","metodo":"Hitos y vértices oficiales del servicio de ANA, ordenados a lo largo del río por SIMPAC y unidos en una línea por margen (simplificada a 2 m).","fecha_fuente":"2026-04-28","area_km2":null},"geometry":{"type":"MultiLineString","coordinates":[[[-78.47657,-7.17],[-78.47653,-7.17012],[-78.47645,-7.17025],[-78.47636,-7.17056],[-78.47625,-7.17073],[-78.47603,-7.1708],[-78.47589,-7.1708],[-78.47562,-7.17093],[-78.47551,-7.17105],[-78.47543,-7.17129],[-78.47539,-7.17266],[-78.47534,-7.17303],[-78.47526,-7.17329],[-78.47497,-7.17371],[-78.47493,-7.17391],[-78.47476,-7.1741],[-78.4745,-7.17457],[-78.47423,-7.17496],[-78.47405,-7.17515],[-78.47383,-7.17526],[-78.47332,-7.17536],[-78.47295,-7.17547],[-78.47262,-7.1756],[-78.47241,-7.17574],[-78.47216,-7.17613],[-78.47191,-7.17674]]]}},{"type":"Feature","properties":{"clave":"mashcon:faja:0573-2024-ANA-AAA.M:derecha","tipo":"faja","subtipo":"derecha","orden":10,"nombre":"Límite de la faja marginal (derecha)","texto":"Límite de la faja marginal del río Mashcón aprobada por ANA (RD 0573-2024-ANA-AAA.M, 22/05/2024; método: huella máxima). Es el espacio del río más una franja de protección; no es un mapa de inundación.","fuente":"ANA - DSNIRH, faja marginal (RD 0573-2024-ANA-AAA.M)","fuente_url":"https://geosnirh.ana.gob.pe/server/rest/services/P%C3%BAblico/FajaMarginal/MapServer/127","licencia":"Información pública (copyright del servicio: ANA - DSNIRH)","atribucion":"Fuente: ANA - DSNIRH (faja marginal aprobada por resolución directoral).","metodo":"Hitos y vértices oficiales del servicio de ANA, ordenados a lo largo del río por SIMPAC y unidos en una línea por margen (simplificada a 2 m).","fecha_fuente":"2024-05-22","area_km2":null},"geometry":{"type":"MultiLineString","coordinates":[[[-78.4784,-7.16518],[-78.47845,-7.16579],[-78.47844,-7.16658],[-78.47839,-7.16693],[-78.47822,-7.16728],[-78.47818,-7.16807],[-78.47813,-7.16821],[-78.47809,-7.16828],[-78.47791,-7.16843],[-78.47739,-7.16863],[-78.47721,-7.16884],[-78.47714,-7.16904],[-78.47701,-7.16968],[-78.47689,-7.16995],[-78.47679,-7.17034],[-78.4766,-7.1708],[-78.47643,-7.17098],[-78.47613,-7.17114],[-78.47602,-7.17117],[-78.47588,-7.17115],[-78.47583,-7.17112],[-78.47578,-7.17117],[-78.47569,-7.17196],[-78.47569,-7.17269],[-78.47562,-7.17308],[-78.47546,-7.17345],[-78.47525,-7.17382],[-78.47515,-7.17406],[-78.4751,-7.17428],[-78.47474,-7.17469],[-78.47434,-7.17524],[-78.47406,-7.17547],[-78.47316,-7.17571],[-78.47269,-7.17588],[-78.47255,-7.17604],[-78.47226,-7.17669],[-78.47209,-7.177],[-78.47206,-7.17712],[-78.4721,-7.17721],[-78.47231,-7.17749],[-78.47255,-7.17794],[-78.47284,-7.17837],[-78.47301,-7.1788],[-78.47307,-7.17902],[-78.47305,-7.17921],[-78.47295,-7.17954],[-78.4728,-7.17967],[-78.47244,-7.18032],[-78.47239,-7.18052],[-78.4722,-7.18076],[-78.47174,-7.18114],[-78.47146,-7.18109],[-78.4713,-7.18116],[-78.47084,-7.18188],[-78.47077,-7.18205],[-78.47077,-7.18217],[-78.47067,-7.18241],[-78.47047,-7.18262],[-78.4696,-7.18314],[-78.46858,-7.18359],[-78.46849,-7.1836],[-78.46808,-7.18378],[-78.46725,-7.18403],[-78.46691,-7.18425],[-78.46665,-7.18457],[-78.46616,-7.18484],[-78.46589,-7.1849],[-78.4655,-7.18477],[-78.46515,-7.18444],[-78.46493,-7.18445],[-78.46443,-7.18459],[-78.46431,-7.18458],[-78.46364,-7.18489],[-78.46348,-7.185],[-78.46314,-7.18503],[-78.46283,-7.18497],[-78.46266,-7.18483],[-78.46219,-7.18455],[-78.46182,-7.18448],[-78.46175,-7.18452]]]}},{"type":"Feature","properties":{"clave":"mashcon:faja:0889-2023-ANA-AAA.M:derecha","tipo":"faja","subtipo":"derecha","orden":10,"nombre":"Límite de la faja marginal (derecha)","texto":"Límite de la faja marginal del río Mashcón aprobada por ANA (RD 0889-2023-ANA-AAA.M, 22/11/2023; método: huella máxima). Es el espacio del río más una franja de protección; no es un mapa de inundación.","fuente":"ANA - DSNIRH, faja marginal (RD 0889-2023-ANA-AAA.M)","fuente_url":"https://geosnirh.ana.gob.pe/server/rest/services/P%C3%BAblico/FajaMarginal/MapServer/127","licencia":"Información pública (copyright del servicio: ANA - DSNIRH)","atribucion":"Fuente: ANA - DSNIRH (faja marginal aprobada por resolución directoral).","metodo":"Hitos y vértices oficiales del servicio de ANA, ordenados a lo largo del río por SIMPAC y unidos en una línea por margen (simplificada a 2 m).","fecha_fuente":"2023-11-22","area_km2":null},"geometry":{"type":"MultiLineString","coordinates":[[[-78.48341,-7.1509],[-78.48336,-7.15111],[-78.48325,-7.15118],[-78.48321,-7.1512],[-78.48312,-7.15123],[-78.48317,-7.15121],[-78.48285,-7.15124],[-78.48259,-7.15177],[-78.4826,-7.15212],[-78.48247,-7.15236],[-78.48219,-7.15277],[-78.48212,-7.15283],[-78.48196,-7.15291],[-78.48179,-7.15296],[-78.48155,-7.15298],[-78.48141,-7.15306],[-78.48128,-7.15329],[-78.48123,-7.15383],[-78.48098,-7.1543],[-78.48072,-7.15455],[-78.48033,-7.15473],[-78.48011,-7.15498],[-78.48017,-7.15556],[-78.48015,-7.15566],[-78.48009,-7.15573],[-78.48005,-7.15613],[-78.47997,-7.15634],[-78.47978,-7.15645],[-78.47956,-7.15648],[-78.47922,-7.15661],[-78.47912,-7.15669],[-78.47891,-7.15677],[-78.47849,-7.15701],[-78.47853,-7.15719],[-78.47898,-7.1574],[-78.47904,-7.15746],[-78.47916,-7.1576],[-78.47908,-7.15749],[-78.47914,-7.15756],[-78.47918,-7.15763],[-78.4792,-7.15768],[-78.4792,-7.15799],[-78.47911,-7.15834],[-78.47915,-7.15861],[-78.47922,-7.15885],[-78.47919,-7.159],[-78.47917,-7.15904],[-78.47914,-7.15913],[-78.47916,-7.15909],[-78.47911,-7.15916],[-78.47889,-7.1595],[-78.47877,-7.15964],[-78.47871,-7.15976],[-78.4786,-7.16006],[-78.47848,-7.16068],[-78.47848,-7.1609],[-78.47853,-7.1614],[-78.47841,-7.16261],[-78.47844,-7.16301],[-78.47843,-7.16419],[-78.47846,-7.16443],[-78.47842,-7.16463],[-78.47843,-7.16493]]]}},{"type":"Feature","properties":{"clave":"mashcon:faja:0889-2023-ANA-AAA.M:izquierda","tipo":"faja","subtipo":"izquierda","orden":10,"nombre":"Límite de la faja marginal (izquierda)","texto":"Límite de la faja marginal del río Mashcón aprobada por ANA (RD 0889-2023-ANA-AAA.M, 22/11/2023; método: huella máxima). Es el espacio del río más una franja de protección; no es un mapa de inundación.","fuente":"ANA - DSNIRH, faja marginal (RD 0889-2023-ANA-AAA.M)","fuente_url":"https://geosnirh.ana.gob.pe/server/rest/services/P%C3%BAblico/FajaMarginal/MapServer/127","licencia":"Información pública (copyright del servicio: ANA - DSNIRH)","atribucion":"Fuente: ANA - DSNIRH (faja marginal aprobada por resolución directoral).","metodo":"Hitos y vértices oficiales del servicio de ANA, ordenados a lo largo del río por SIMPAC y unidos en una línea por margen (simplificada a 2 m).","fecha_fuente":"2023-11-22","area_km2":null},"geometry":{"type":"MultiLineString","coordinates":[[[-78.483,-7.15084],[-78.48239,-7.15105],[-78.48236,-7.15109],[-78.4822,-7.15151],[-78.48222,-7.15173],[-78.48219,-7.15186],[-78.48223,-7.15199],[-78.48222,-7.15212],[-78.48216,-7.15229],[-78.48204,-7.15242],[-78.48202,-7.15249],[-78.48185,-7.15265],[-78.4814,-7.1527],[-78.4812,-7.15279],[-78.48106,-7.15297],[-78.48097,-7.15317],[-78.48092,-7.15362],[-78.48084,-7.15388],[-78.48071,-7.15411],[-78.48055,-7.15427],[-78.48041,-7.15436],[-78.48016,-7.15442],[-78.47995,-7.15455],[-78.47984,-7.1548],[-78.47982,-7.15483],[-78.47977,-7.1549],[-78.47979,-7.15485],[-78.47977,-7.15494],[-78.47977,-7.15499],[-78.47981,-7.15516],[-78.47983,-7.15543],[-78.47977,-7.15593],[-78.47971,-7.15609],[-78.47955,-7.15618],[-78.47918,-7.15628],[-78.47862,-7.15655]]]}}]}