{"type":"FeatureCollection","features":[{"type":"Feature","properties":{"clave":"mashcon:relieve:3","tipo":"estimada","subtipo":"bajo_3m","orden":1,"nombre":"Zona que también podría inundarse","texto":"El terreno está poco por encima del cauce, según el relieve. Si el río se desborda, el agua llegaría a estas zonas después de la franja rayada. Es una estimación hecha con el relieve: no considera muros, puentes ni drenajes y no es un mapa oficial.","fuente":"Estimación SIMPAC: altura sobre el cauce (HAND) con el modelo de elevación Copernicus GLO-30","fuente_url":"https://registry.opendata.aws/copernicus-dem/","licencia":"ODbL 1.0 (usa el trazo de OSM) con aviso Copernicus","atribucion":"Elaborado con Copernicus WorldDEM-30 © DLR e.V. 2010-2014 y © Airbus Defence and Space GmbH 2014-2018, provisto bajo COPERNICUS por la Unión Europea y la ESA; todos los derechos reservados. Trazo del río: © colaboradores de OpenStreetMap (openstreetmap.org/copyright)","metodo":"HAND sobre Copernicus GLO-30 (30 m) con el trazo OSM grabado, relleno de depresiones y D8; solo zonas conectadas al río y a menos de 1,5 km; suavizado. Error vertical del modelo 2-3 m: los umbrales se leen como 'más bajo / bajo / algo bajo', no como metros exactos. En zonas con edificios o árboles se queda corto (es un modelo de superficie).","fecha_fuente":"2026-10-02","area_km2":1.939},"geometry":{"type":"MultiPolygon","coordinates":[[[[-78.47858,-7.16458],[-78.47812,-7.16458],[-78.47804,-7.16465],[-78.47802,-7.165],[-78.47812,-7.16562],[-78.47797,-7.16573],[-78.4779,-7.16615],[-78.47769,-7.16635],[-78.4776,-7.1676],[-78.47743,-7.16792],[-78.47729,-7.16792],[-78.47717,-7.16802],[-78.47729,-7.16844],[-78.47714,-7.16851],[-78.47705,-7.16891],[-78.47661,-7.16889],[-78.47642,-7.16927],[-78.47622,-7.17005],[-78.47594,-7.17024],[-78.47571,-7.17059],[-78.47535,-7.17069],[-78.47517,-7.1709],[-78.47516,-7.1716],[-78.47524,-7.17181],[-78.4754,-7.17191],[-78.47536,-7.17233],[-78.47519,-7.17238],[-78.47509,-7.17259],[-78.47462,-7.17264],[-78.47436,-7.17248],[-78.47424,-7.17196],[-78.47389,-7.17181],[-78.47361,-7.17181],[-78.47326,-7.17186],[-78.47314,-7.17203],[-78.47304,-7.17207],[-78.47241,-7.17214],[-78.47231,-7.17234],[-78.4721,-7.17241],[-78.47208,-7.17253],[-78.47215,-7.17259],[-78.47278,-7.17264],[-78.47312,-7.17274],[-78.47325,-7.17316],[-78.47342,-7.17323],[-78.47347,-7.1734],[-78.47345,-7.17365],[-78.47337,-7.17375],[-78.47325,-7.17373],[-78.47309,-7.17349],[-78.47285,-7.17347],[-78.47273,-7.17358],[-78.47253,-7.1741],[-78.47233,-7.17503],[-78.4721,-7.17524],[-78.47203,-7.17566],[-78.47186,-7.17576],[-78.47179,-7.1766],[-78.47155,-7.17701],[-78.47156,-7.17769],[-78.47163,-7.1778],[-78.47174,-7.17781],[-78.47198,-7.17773],[-78.47208,-7.17785],[-78.47203,-7.17816],[-78.47186,-7.17821],[-78.47181,-7.17837],[-78.47233,-7.17884],[-78.47236,-7.1791],[-78.47226,-7.17932],[-78.47191,-7.17955],[-78.47177,-7.17981],[-78.47135,-7.17988],[-78.47122,-7.18009],[-78.4708,-7.18021],[-78.47073,-7.18035],[-78.47066,-7.18102],[-78.47059,-7.18113],[-78.47021,-7.18109],[-78.47007,-7.1812],[-78.46951,-7.18201],[-78.46937,-7.18208],[-78.46913,-7.18207],[-78.46898,-7.18186],[-78.46825,-7.18175],[-78.46818,-7.18158],[-78.46802,-7.18153],[-78.46793,-7.18168],[-78.46793,-7.1822],[-78.46802,-7.18236],[-78.46818,-7.18241],[-78.46819,-7.18253],[-78.46814,-7.18262],[-78.46797,-7.18269],[-78.4679,-7.18332],[-78.46781,-7.18347],[-78.46769,-7.18345],[-78.46753,-7.18321],[-78.46719,-7.18321],[-78.46698,-7.18345],[-78.46656,-7.18352],[-78.46651,-7.1837],[-78.4663,-7.18378],[-78.46625,-7.1841],[-78.46594,-7.18427],[-78.4649,-7.18429],[-78.46458,-7.1842],[-78.46453,-7.18405],[-78.46441,-7.18403],[-78.46432,-7.18408],[-78.46429,-7.18425],[-78.46413,-7.18431],[-78.46392,-7.18405],[-78.46358,-7.18405],[-78.46342,-7.18429],[-78.46325,-7.18434],[-78.46318,-7.18476],[-78.46309,-7.18486],[-78.46297,-7.18484],[-78.46281,-7.1846],[-78.4624,-7.18453],[-78.46226,-7.18432],[-78.46201,-7.18431],[-78.46184,-7.18446],[-78.46181,-7.18483],[-78.46191,-7.18503],[-78.46226,-7.18495],[-78.46233,-7.18498],[-78.46236,-7.18521],[-78.46245,-7.18533],[-78.46288,-7.18552],[-78.46323,-7.18559],[-78.46354,-7.18557],[-78.46382,-7.18547],[-78.46406,-7.18528],[-78.46446,-7.18479],[-78.46479,-7.18458],[-78.46503,-7.18462],[-78.46514,-7.18479],[-78.46517,-7.18503],[-78.46524,-7.1851],[-78.46549,-7.18514],[-78.46566,-7.18509],[-78.46576,-7.18491],[-78.46639,-7.18486],[-78.46674,-7.18476],[-78.46684,-7.18443],[-78.46691,-7.18439],[-78.46726,-7.18455],[-78.4674,-7.18481],[-78.46771,-7.18486],[-78.46788,-7.18476],[-78.46792,-7.18451],[-78.468,-7.18443],[-78.46927,-7.18446],[-78.46941,-7.18438],[-78.46951,-7.18406],[-78.46932,-7.18398],[-78.46931,-7.18385],[-78.46938,-7.1838],[-78.47035,-7.1837],[-78.47047,-7.18349],[-78.47059,-7.18347],[-78.47068,-7.18321],[-78.47069,-7.1826],[-78.4708,-7.18217],[-78.47127,-7.18198],[-78.47161,-7.18156],[-78.47205,-7.18148],[-78.4721,-7.1813],[-78.47234,-7.18115],[-78.47241,-7.18073],[-78.47262,-7.18064],[-78.47267,-7.18047],[-78.47309,-7.18036],[-78.47319,-7.1801],[-78.47325,-7.17964],[-78.47342,-7.17957],[-78.47347,-7.17948],[-78.47342,-7.17932],[-78.47321,-7.17925],[-78.47319,-7.17913],[-78.4733,-7.17905],[-78.47372,-7.17898],[-78.47377,-7.1788],[-78.47401,-7.17865],[-78.47408,-7.17823],[-78.47429,-7.17814],[-78.47431,-7.17802],[-78.47424,-7.17797],[-78.4734,-7.1779],[-78.47319,-7.17781],[-78.47321,-7.17769],[-78.47345,-7.17753],[-78.47347,-7.17729],[-78.47339,-7.17719],[-78.47321,-7.17712],[-78.47236,-7.17705],[-78.47222,-7.17698],[-78.47219,-7.17688],[-78.47233,-7.17663],[-78.47262,-7.17642],[-78.47269,-7.17601],[-78.47286,-7.17595],[-78.47293,-7.17575],[-78.47309,-7.17569],[-78.47326,-7.17592],[-78.47424,-7.17602],[-78.47431,-7.17608],[-78.47429,-7.1762],[-78.47405,-7.17635],[-78.47408,-7.1767],[-78.47434,-7.17681],[-78.4747,-7.17684],[-78.47486,-7.17701],[-78.47491,-7.17733],[-78.47512,-7.17741],[-78.47519,-7.17762],[-78.4754,-7.17769],[-78.47545,-7.17786],[-78.47562,-7.17792],[-78.47587,-7.17788],[-78.47597,-7.17771],[-78.47602,-7.1774],[-78.4762,-7.17734],[-78.47625,-7.17726],[-78.4762,-7.1771],[-78.47599,-7.17703],[-78.47599,-7.17686],[-78.4762,-7.17677],[-78.47627,-7.17635],[-78.47651,-7.1762],[-78.47653,-7.17608],[-78.47622,-7.17597],[-78.47575,-7.17602],[-78.47571,-7.1762],[-78.47595,-7.17635],[-78.47597,-7.1766],[-78.47587,-7.17672],[-78.47552,-7.17656],[-78.47538,-7.1763],[-78.47498,-7.17622],[-78.47497,-7.17604],[-78.47512,-7.1758],[-78.47556,-7.17564],[-78.4753,-7.17502],[-78.47533,-7.17491],[-78.47592,-7.17481],[-78.47602,-7.1746],[-78.4762,-7.1746],[-78.47627,-7.17481],[-78.47651,-7.17497],[-78.47658,-7.17538],[-78.47675,-7.1754],[-78.47684,-7.17519],[-78.47722,-7.17509],[-78.47715,-7.17483],[-78.47693,-7.17446],[-78.47691,-7.17431],[-78.47707,-7.17425],[-78.47714,-7.17408],[-78.47786,-7.17398],[-78.47802,-7.17372],[-78.47835,-7.17349],[-78.47837,-7.17326],[-78.47826,-7.17295],[-78.47837,-7.17292],[-78.47845,-7.17266],[-78.47842,-7.17161],[-78.47837,-7.17153],[-78.47821,-7.17148],[-78.47816,-7.1713],[-78.47774,-7.17118],[-78.47764,-7.17083],[-78.47767,-7.17033],[-78.47774,-7.17016],[-78.47821,-7.16977],[-78.47845,-7.16941],[-78.47899,-7.16925],[-78.47905,-7.16908],[-78.47925,-7.16899],[-78.47934,-7.16856],[-78.47974,-7.16821],[-78.47976,-7.16799],[-78.47965,-7.16767],[-78.47981,-7.16762],[-78.47986,-7.16753],[-78.47983,-7.1674],[-78.47951,-7.16719],[-78.47934,-7.16689],[-78.47932,-7.16618],[-78.47941,-7.16597],[-78.47957,-7.16592],[-78.47958,-7.1658],[-78.47937,-7.16561],[-78.4787,-7.16521],[-78.47858,-7.16493],[-78.47868,-7.16462],[-78.47858,-7.16458]],[[-78.46365,-7.18431],[-78.46373,-7.18436],[-78.46375,-7.18448],[-78.4637,-7.18457],[-78.46358,-7.18458],[-78.46349,-7.18453],[-78.46347,-7.18441],[-78.46352,-7.18432],[-78.46365,-7.18431]],[[-78.4667,-7.18375],[-78.46679,-7.1838],[-78.46681,-7.18392],[-78.46675,-7.18401],[-78.46663,-7.18403],[-78.46655,-7.18398],[-78.46653,-7.18385],[-78.46658,-7.18377],[-78.4667,-7.18375]],[[-78.47031,-7.18208],[-78.4704,-7.18214],[-78.47042,-7.18226],[-78.47036,-7.18234],[-78.47024,-7.18236],[-78.47016,-7.18231],[-78.47014,-7.18219],[-78.47019,-7.1821],[-78.47031,-7.18208]],[[-78.47115,-7.18069],[-78.47123,-7.18075],[-78.47125,-7.18087],[-78.4712,-7.18095],[-78.47108,-7.18097],[-78.47099,-7.18092],[-78.47097,-7.1808],[-78.47102,-7.18071],[-78.47115,-7.18069]],[[-78.47142,-7.18042],[-78.47151,-7.18047],[-78.47153,-7.18059],[-78.47148,-7.18068],[-78.47135,-7.18069],[-78.47127,-7.18064],[-78.47125,-7.18052],[-78.4713,-7.18043],[-78.47142,-7.18042]],[[-78.47253,-7.17931],[-78.47262,-7.17936],[-78.47264,-7.17948],[-78.47259,-7.17957],[-78.47247,-7.17958],[-78.47238,-7.17953],[-78.47236,-7.17941],[-78.47241,-7.17932],[-78.47253,-7.17931]],[[-78.47448,-7.17319],[-78.47458,-7.1733],[-78.47453,-7.17345],[-78.47413,-7.17347],[-78.47403,-7.17337],[-78.47408,-7.17321],[-78.47448,-7.17319]],[[-78.47476,-7.17486],[-78.47484,-7.17491],[-78.47486,-7.17503],[-78.47481,-7.17512],[-78.47469,-7.17514],[-78.4746,-7.17509],[-78.47458,-7.17497],[-78.47464,-7.17488],[-78.47476,-7.17486]],[[-78.47503,-7.17653],[-78.47512,-7.17658],[-78.47514,-7.1767],[-78.47509,-7.17679],[-78.47497,-7.17681],[-78.47488,-7.17675],[-78.47486,-7.17663],[-78.47491,-7.17655],[-78.47503,-7.17653]],[[-78.47531,-7.17264],[-78.47542,-7.17274],[-78.47542,-7.17309],[-78.47536,-7.17318],[-78.47524,-7.17319],[-78.47514,-7.17309],[-78.47514,-7.17274],[-78.47519,-7.17266],[-78.47531,-7.17264]],[[-78.47559,-7.17681],[-78.47568,-7.17686],[-78.47569,-7.17698],[-78.47564,-7.17707],[-78.47552,-7.17708],[-78.47543,-7.17703],[-78.47542,-7.17691],[-78.47547,-7.17682],[-78.47559,-7.17681]],[[-78.47587,-7.17069],[-78.47595,-7.17075],[-78.47597,-7.17087],[-78.47592,-7.17095],[-78.4758,-7.17097],[-78.47571,-7.17092],[-78.47569,-7.1708],[-78.47575,-7.17071],[-78.47587,-7.17069]],[[-78.47642,-7.17014],[-78.47651,-7.17019],[-78.47653,-7.17031],[-78.47648,-7.1704],[-78.47635,-7.17042],[-78.47627,-7.17036],[-78.47625,-7.17024],[-78.4763,-7.17016],[-78.47642,-7.17014]],[[-78.4767,-7.16958],[-78.47679,-7.16964],[-78.47681,-7.16976],[-78.47675,-7.16984],[-78.47663,-7.16986],[-78.47655,-7.16981],[-78.47653,-7.16969],[-78.47658,-7.1696],[-78.4767,-7.16958]],[[-78.47753,-7.16875],[-78.47762,-7.1688],[-78.47764,-7.16892],[-78.47759,-7.16901],[-78.47747,-7.16903],[-78.47738,-7.16898],[-78.47736,-7.16885],[-78.47741,-7.16877],[-78.47753,-7.16875]],[[-78.47781,-7.16792],[-78.4779,-7.16797],[-78.47792,-7.16809],[-78.47786,-7.16818],[-78.47774,-7.16819],[-78.47766,-7.16814],[-78.47764,-7.16802],[-78.47769,-7.16793],[-78.47781,-7.16792]],[[-78.47781,-7.16847],[-78.4779,-7.16852],[-78.47792,-7.16865],[-78.47786,-7.16873],[-78.47774,-7.16875],[-78.47766,-7.1687],[-78.47764,-7.16858],[-78.47769,-7.16849],[-78.47781,-7.16847]],[[-78.47809,-7.16653],[-78.47818,-7.16658],[-78.47819,-7.1667],[-78.47814,-7.16679],[-78.47802,-7.16681],[-78.47793,-7.16675],[-78.47792,-7.16663],[-78.47797,-7.16655],[-78.47809,-7.16653]],[[-78.47809,-7.17319],[-78.47818,-7.17325],[-78.47819,-7.17337],[-78.47814,-7.17345],[-78.47802,-7.17347],[-78.47793,-7.17342],[-78.47792,-7.1733],[-78.47797,-7.17321],[-78.47809,-7.17319]]],[[[-78.52747,-7.11486],[-78.52719,-7.11486],[-78.52714,-7.11491],[-78.52707,-7.11554],[-78.52686,-7.11582],[-78.52675,-7.11752],[-78.5267,-7.11764],[-78.52655,-7.11774],[-78.52648,-7.11813],[-78.52585,-7.11868],[-78.52575,-7.11882],[-78.52562,-7.11922],[-78.52465,-7.11967],[-78.52453,-7.1201],[-78.52432,-7.12024],[-78.52425,-7.12066],[-78.52405,-7.1208],[-78.52399,-7.12115],[-78.52382,-7.12125],[-78.52358,-7.12127],[-78.52347,-7.12135],[-78.52358,-7.12151],[-78.52392,-7.12156],[-78.52403,-7.12174],[-78.52403,-7.12188],[-78.52387,-7.12215],[-78.52351,-7.12243],[-78.52319,-7.12286],[-78.52302,-7.12351],[-78.52299,-7.12394],[-78.52302,-7.12403],[-78.52318,-7.12408],[-78.52319,-7.1242],[-78.52252,-7.12484],[-78.52236,-7.12538],[-78.52231,-7.12616],[-78.52219,-7.12625],[-78.5221,-7.12656],[-78.5221,-7.1276],[-78.52219,-7.12792],[-78.52226,-7.12792],[-78.52234,-7.12807],[-78.52241,-7.1287],[-78.52259,-7.12878],[-78.52274,-7.12932],[-78.52299,-7.12948],[-78.52321,-7.12977],[-78.52344,-7.13049],[-78.52358,-7.13069],[-78.5237,-7.13073],[-78.52377,-7.13115],[-78.52392,-7.13125],[-78.52401,-7.13156],[-78.52403,-7.13229],[-78.52392,-7.13281],[-78.52382,-7.13292],[-78.52358,-7.13293],[-78.52347,-7.13302],[-78.52349,-7.13314],[-78.5237,-7.13321],[-78.52375,-7.1333],[-78.52373,-7.13342],[-78.52358,-7.13347],[-78.52352,-7.13356],[-78.52347,-7.13399],[-78.52352,-7.13477],[-78.52373,-7.13502],[-78.52373,-7.13554],[-78.52365,-7.13569],[-78.52349,-7.13575],[-78.52344,-7.13592],[-78.52302,-7.13599],[-78.52292,-7.13608],[-78.52293,-7.1362],[-78.52318,-7.13635],[-78.52325,-7.13677],[-78.52345,-7.13691],[-78.52351,-7.13727],[-78.52392,-7.13767],[-78.52403,-7.13816],[-78.52408,-7.13894],[-78.52425,-7.13906],[-78.52432,-7.13948],[-78.5245,-7.13964],[-78.52411,-7.14026],[-78.5238,-7.14047],[-78.52375,-7.14094],[-78.52365,-7.1412],[-78.52326,-7.1413],[-78.52312,-7.14141],[-78.52257,-7.14203],[-78.52219,-7.14212],[-78.52201,-7.14255],[-78.52187,-7.14266],[-78.52118,-7.14288],[-78.52089,-7.14314],[-78.51967,-7.14325],[-78.51948,-7.14345],[-78.51913,-7.14349],[-78.51903,-7.14365],[-78.51861,-7.14373],[-78.51722,-7.14373],[-78.51681,-7.14365],[-78.51675,-7.14352],[-78.51665,-7.14349],[-78.51613,-7.14345],[-78.51597,-7.14337],[-78.51602,-7.14325],[-78.51665,-7.14318],[-78.51681,-7.14309],[-78.51675,-7.14293],[-78.51655,-7.14286],[-78.51649,-7.14269],[-78.51608,-7.14259],[-78.51597,-7.14233],[-78.51597,-7.14212],[-78.51602,-7.14186],[-78.5162,-7.14175],[-78.51635,-7.14097],[-78.5167,-7.14073],[-78.51681,-7.14052],[-78.51634,-7.1401],[-78.51589,-7.13884],[-78.51576,-7.13875],[-78.51562,-7.13875],[-78.51545,-7.13885],[-78.51542,-7.1391],[-78.51531,-7.13927],[-78.5149,-7.13936],[-78.51484,-7.13953],[-78.51469,-7.13958],[-78.51465,-7.13984],[-78.51476,-7.14045],[-78.51474,-7.14094],[-78.51443,-7.14123],[-78.51441,-7.14146],[-78.51451,-7.14177],[-78.51432,-7.14186],[-78.51427,-7.14201],[-78.51378,-7.14188],[-78.51373,-7.14203],[-78.51358,-7.14208],[-78.51344,-7.14198],[-78.51321,-7.14163],[-78.51267,-7.14148],[-78.51262,-7.1413],[-78.51241,-7.14123],[-78.51236,-7.14108],[-78.51194,-7.14099],[-78.51097,-7.14097],[-78.51017,-7.14113],[-78.50993,-7.14128],[-78.50957,-7.14175],[-78.50936,-7.14182],[-78.50931,-7.14198],[-78.50889,-7.14207],[-78.50722,-7.14203],[-78.50708,-7.14198],[-78.50701,-7.14186],[-78.50618,-7.14179],[-78.50604,-7.14175],[-78.50597,-7.14163],[-78.5055,-7.14155],[-78.50394,-7.14155],[-78.50347,-7.14163],[-78.50342,-7.14175],[-78.50332,-7.14179],[-78.50269,-7.14186],[-78.50264,-7.14198],[-78.50238,-7.14207],[-78.50151,-7.1421],[-78.50134,-7.14214],[-78.50125,-7.14226],[-78.50111,-7.14231],[-78.50083,-7.14234],[-78.49986,-7.14236],[-78.49917,-7.14247],[-78.49903,-7.14257],[-78.49898,-7.14288],[-78.4988,-7.14293],[-78.49875,-7.14309],[-78.49849,-7.14323],[-78.49745,-7.1434],[-78.49726,-7.14321],[-78.49701,-7.14319],[-78.49679,-7.1433],[-78.49649,-7.14365],[-78.49601,-7.14375],[-78.49566,-7.14375],[-78.49523,-7.1437],[-78.49498,-7.14349],[-78.49436,-7.14342],[-78.49422,-7.14325],[-78.493,-7.14314],[-78.49281,-7.14293],[-78.4924,-7.14286],[-78.4924,-7.14269],[-78.49271,-7.14264],[-78.49288,-7.14253],[-78.49292,-7.14229],[-78.49281,-7.14212],[-78.49257,-7.14208],[-78.4924,-7.14198],[-78.49236,-7.14174],[-78.49226,-7.14161],[-78.49191,-7.14177],[-78.49174,-7.14203],[-78.4909,-7.1421],[-78.49069,-7.14219],[-78.49059,-7.14234],[-78.49024,-7.1424],[-78.49014,-7.14257],[-78.49009,-7.14288],[-78.48991,-7.14293],[-78.48986,-7.14309],[-78.48997,-7.14318],[-78.49031,-7.14323],[-78.49042,-7.1434],[-78.49042,-7.14354],[-78.49031,-7.14372],[-78.48997,-7.14377],[-78.48979,-7.14398],[-78.48917,-7.14403],[-78.48875,-7.14392],[-78.4888,-7.14377],[-78.48898,-7.14372],[-78.48903,-7.1434],[-78.48898,-7.14323],[-78.4888,-7.14318],[-78.48865,-7.14293],[-78.4883,-7.14297],[-78.48819,-7.14323],[-78.48818,-7.14359],[-78.48809,-7.14375],[-78.48797,-7.14373],[-78.48786,-7.14349],[-78.4876,-7.14326],[-78.48722,-7.14306],[-78.48708,-7.14306],[-78.48677,-7.14344],[-78.4866,-7.14351],[-78.48672,-7.14392],[-78.48668,-7.14399],[-78.48646,-7.14403],[-78.48634,-7.14413],[-78.48623,-7.14434],[-78.48601,-7.14538],[-78.48587,-7.14569],[-78.48575,-7.14566],[-78.48568,-7.14524],[-78.48552,-7.14514],[-78.48543,-7.14524],[-78.48538,-7.14557],[-78.48521,-7.14559],[-78.4849,-7.14549],[-78.48483,-7.14564],[-78.48451,-7.14569],[-78.48441,-7.14578],[-78.48431,-7.14622],[-78.48429,-7.14682],[-78.4842,-7.14708],[-78.48405,-7.14698],[-78.48398,-7.14663],[-78.48372,-7.14653],[-78.48351,-7.14653],[-78.48325,-7.14658],[-78.48309,-7.14679],[-78.48267,-7.14686],[-78.48262,-7.14703],[-78.48241,-7.14712],[-78.48234,-7.14753],[-78.48215,-7.14767],[-78.48229,-7.14816],[-78.48219,-7.14819],[-78.48214,-7.14833],[-78.48208,-7.14903],[-78.48214,-7.15028],[-78.48219,-7.15042],[-78.48234,-7.15052],[-78.48234,-7.15087],[-78.48214,-7.15102],[-78.48203,-7.15175],[-78.48182,-7.15186],[-78.48177,-7.15203],[-78.48146,-7.15208],[-78.48134,-7.15219],[-78.48115,-7.15271],[-78.48101,-7.15344],[-78.48087,-7.15375],[-78.48071,-7.15365],[-78.48064,-7.15323],[-78.48052,-7.15319],[-78.48043,-7.1534],[-78.4804,-7.1541],[-78.48031,-7.15431],[-78.48016,-7.15425],[-78.4801,-7.15408],[-78.47979,-7.15403],[-78.47962,-7.15418],[-78.47958,-7.15455],[-78.47948,-7.15476],[-78.47911,-7.15467],[-78.47901,-7.1547],[-78.47865,-7.15514],[-78.47852,-7.15512],[-78.47837,-7.15488],[-78.47802,-7.15488],[-78.47792,-7.15497],[-78.47802,-7.15512],[-78.47837,-7.15516],[-78.47847,-7.15524],[-78.47845,-7.15536],[-78.4783,-7.15542],[-78.47825,-7.1555],[-78.47814,-7.15672],[-78.47797,-7.15686],[-78.47792,-7.15733],[-78.47781,-7.15759],[-78.4774,-7.15769],[-78.47734,-7.15786],[-78.47715,-7.15795],[-78.47729,-7.15844],[-78.4771,-7.15858],[-78.47705,-7.15892],[-78.47688,-7.15903],[-78.47663,-7.15906],[-78.47653,-7.15924],[-78.47653,-7.15938],[-78.47663,-7.1596],[-78.47705,-7.15995],[-78.47708,-7.16021],[-78.47719,-7.16038],[-78.47753,-7.16043],[-78.47767,-7.16062],[-78.47799,-7.16052],[-78.47807,-7.16057],[-78.47809,-7.16104],[-78.47799,-7.16198],[-78.47802,-7.16208],[-78.47818,-7.16214],[-78.47819,-7.16226],[-78.47814,-7.16234],[-78.47797,-7.16241],[-78.47792,-7.16288],[-78.47797,-7.16314],[-78.47814,-7.16321],[-78.47819,-7.16337],[-78.47814,-7.16345],[-78.47797,-7.16352],[-78.47792,-7.16399],[-78.47807,-7.16425],[-78.47844,-7.16431],[-78.47859,-7.16425],[-78.47875,-7.16399],[-78.47873,-7.16363],[-78.47865,-7.16347],[-78.47849,-7.16342],[-78.47847,-7.1633],[-78.47868,-7.16321],[-78.47937,-7.16316],[-78.47958,-7.16299],[-78.47958,-7.16285],[-78.47948,-7.16267],[-78.47913,-7.1626],[-78.47906,-7.16253],[-78.47906,-7.16219],[-78.47924,-7.16208],[-78.4801,-7.16208],[-78.48036,-7.16214],[-78.48047,-7.16234],[-78.48064,-7.16233],[-78.48073,-7.16191],[-78.48122,-7.1617],[-78.48125,-7.16146],[-78.4812,-7.16135],[-78.48109,-7.16128],[-78.48057,-7.16122],[-78.48047,-7.16115],[-78.48036,-7.1608],[-78.48026,-7.16073],[-78.4799,-7.16069],[-78.47964,-7.1608],[-78.47953,-7.16122],[-78.47936,-7.16127],[-78.47931,-7.16135],[-78.47936,-7.16151],[-78.47957,-7.16158],[-78.47958,-7.1617],[-78.47917,-7.16181],[-78.47872,-7.16175],[-78.47865,-7.16165],[-78.47868,-7.16149],[-78.47905,-7.16102],[-78.47929,-7.16092],[-78.47931,-7.1608],[-78.47915,-7.16071],[-78.47863,-7.16064],[-78.47847,-7.16038],[-78.47851,-7.16002],[-78.47868,-7.15986],[-78.47899,-7.15981],[-78.47905,-7.15964],[-78.4792,-7.15958],[-78.47929,-7.15969],[-78.47931,-7.15993],[-78.47925,-7.1601],[-78.47905,-7.16019],[-78.47908,-7.1604],[-78.47925,-7.1604],[-78.47936,-7.16019],[-78.48,-7.16007],[-78.48014,-7.15993],[-78.48045,-7.15922],[-78.48066,-7.15905],[-78.48172,-7.15866],[-78.48181,-7.15854],[-78.48181,-7.1584],[-78.48175,-7.15823],[-78.48163,-7.15819],[-78.48155,-7.15825],[-78.48148,-7.15842],[-78.48085,-7.15845],[-78.48069,-7.15837],[-78.48066,-7.15825],[-78.48023,-7.15812],[-78.48012,-7.15799],[-78.47997,-7.1575],[-78.47998,-7.15727],[-78.48009,-7.1571],[-78.4809,-7.15677],[-78.48108,-7.15655],[-78.48142,-7.15655],[-78.48158,-7.15679],[-78.48175,-7.15684],[-78.48182,-7.15726],[-78.48207,-7.15741],[-78.48212,-7.15759],[-78.48253,-7.15766],[-78.48264,-7.15781],[-78.483,-7.1579],[-78.48385,-7.15792],[-78.48446,-7.15781],[-78.48458,-7.15771],[-78.48464,-7.1574],[-78.48479,-7.15733],[-78.48462,-7.15691],[-78.48436,-7.15677],[-78.48429,-7.15635],[-78.48408,-7.15622],[-78.48398,-7.1558],[-78.48372,-7.15569],[-78.48351,-7.15569],[-78.48333,-7.15557],[-78.48319,-7.15533],[-78.48295,-7.15411],[-78.48281,-7.15375],[-78.48266,-7.15385],[-78.48264,-7.1541],[-78.48253,-7.15432],[-78.48229,-7.15448],[-78.4822,-7.15446],[-78.48217,-7.15436],[-78.48229,-7.15354],[-78.4821,-7.15342],[-78.48212,-7.15325],[-78.4826,-7.15314],[-78.48266,-7.15297],[-78.48274,-7.15292],[-78.4829,-7.15297],[-78.48297,-7.15318],[-78.48314,-7.15318],[-78.48319,-7.15309],[-78.48316,-7.15295],[-78.48274,-7.1526],[-78.48264,-7.15212],[-78.48264,-7.15177],[-78.4828,-7.15134],[-78.48295,-7.15125],[-78.48332,-7.15122],[-78.48347,-7.15104],[-78.48342,-7.15073],[-78.48325,-7.15068],[-78.48319,-7.15052],[-78.48325,-7.15043],[-78.48345,-7.15036],[-78.48347,-7.15024],[-78.48342,-7.15016],[-78.48321,-7.15009],[-78.48319,-7.14997],[-78.48335,-7.14988],[-78.48398,-7.14981],[-78.48405,-7.14964],[-78.48425,-7.14953],[-78.48436,-7.1488],[-78.48467,-7.14859],[-78.48516,-7.14797],[-78.48545,-7.14781],[-78.48568,-7.14747],[-78.48615,-7.14733],[-78.48625,-7.14715],[-78.48625,-7.14701],[-78.48646,-7.14684],[-78.48729,-7.14675],[-78.48741,-7.14655],[-78.48753,-7.14653],[-78.48762,-7.14658],[-78.48767,-7.14675],[-78.48809,-7.14684],[-78.48819,-7.14701],[-78.48825,-7.14733],[-78.48837,-7.14736],[-78.48845,-7.14731],[-78.48851,-7.14714],[-78.48891,-7.14705],[-78.48887,-7.14656],[-78.48927,-7.14648],[-78.48932,-7.1463],[-78.48948,-7.14625],[-78.48957,-7.1463],[-78.48964,-7.14648],[-78.49036,-7.14658],[-78.49045,-7.14675],[-78.49087,-7.14682],[-78.49108,-7.14707],[-78.49149,-7.14703],[-78.49149,-7.14686],[-78.49101,-7.14675],[-78.49095,-7.14658],[-78.49076,-7.14649],[-78.4909,-7.14608],[-78.49087,-7.14597],[-78.49075,-7.14599],[-78.49059,-7.14623],[-78.49024,-7.14623],[-78.4901,-7.14602],[-78.48979,-7.14597],[-78.48962,-7.14587],[-78.48958,-7.14563],[-78.48948,-7.14545],[-78.48913,-7.1454],[-78.48903,-7.14531],[-78.48903,-7.14524],[-78.48913,-7.14519],[-78.49007,-7.14514],[-78.49059,-7.14503],[-78.49069,-7.14493],[-78.49069,-7.14479],[-78.4908,-7.14462],[-78.49122,-7.14453],[-78.49123,-7.14436],[-78.49102,-7.14424],[-78.49097,-7.14361],[-78.49108,-7.1434],[-78.49128,-7.14326],[-78.49201,-7.14319],[-78.49248,-7.1433],[-78.49253,-7.1434],[-78.49243,-7.14365],[-78.49247,-7.14375],[-78.49259,-7.14373],[-78.49274,-7.14349],[-78.49309,-7.14351],[-78.49319,-7.14368],[-78.49325,-7.14399],[-78.49342,-7.14405],[-78.49352,-7.14425],[-78.49417,-7.14434],[-78.49441,-7.14451],[-78.49457,-7.14476],[-78.49493,-7.14486],[-78.49516,-7.14476],[-78.4954,-7.14441],[-78.49562,-7.14431],[-78.49587,-7.14429],[-78.49597,-7.14413],[-78.49613,-7.14406],[-78.49832,-7.14372],[-78.49847,-7.14365],[-78.49858,-7.14349],[-78.49882,-7.14347],[-78.49905,-7.14337],[-78.49939,-7.14295],[-78.49976,-7.1429],[-78.49986,-7.14274],[-78.50007,-7.14267],[-78.50299,-7.14233],[-78.50319,-7.14226],[-78.5033,-7.1421],[-78.50372,-7.14203],[-78.50375,-7.14191],[-78.50387,-7.14186],[-78.50448,-7.14181],[-78.50557,-7.14186],[-78.50569,-7.14191],[-78.50575,-7.14203],[-78.50637,-7.1421],[-78.50648,-7.14214],[-78.50653,-7.14226],[-78.50672,-7.14231],[-78.50844,-7.14236],[-78.50906,-7.14229],[-78.50955,-7.14215],[-78.5099,-7.14194],[-78.51033,-7.14146],[-78.51057,-7.14132],[-78.51111,-7.14125],[-78.51146,-7.1413],[-78.51158,-7.14148],[-78.51168,-7.14151],[-78.51205,-7.14153],[-78.51236,-7.14163],[-78.51262,-7.14198],[-78.51316,-7.14214],[-78.51325,-7.14234],[-78.51342,-7.1424],[-78.51352,-7.14281],[-78.51431,-7.14302],[-78.51467,-7.14344],[-78.51503,-7.14349],[-78.51514,-7.14365],[-78.51533,-7.14372],[-78.518,-7.14406],[-78.51819,-7.14413],[-78.51825,-7.14429],[-78.51851,-7.14451],[-78.51898,-7.14477],[-78.51908,-7.1446],[-78.51924,-7.14455],[-78.5191,-7.14406],[-78.51929,-7.14398],[-78.51934,-7.1438],[-78.51976,-7.14373],[-78.51993,-7.14352],[-78.52076,-7.14345],[-78.52097,-7.14337],[-78.52102,-7.14325],[-78.52168,-7.14314],[-78.52186,-7.14304],[-78.52243,-7.14241],[-78.52288,-7.14231],[-78.52293,-7.14214],[-78.52316,-7.14205],[-78.52345,-7.14163],[-78.52399,-7.14148],[-78.52405,-7.1413],[-78.52425,-7.14122],[-78.52441,-7.14068],[-78.52476,-7.14038],[-78.52486,-7.1399],[-78.52483,-7.13927],[-78.52476,-7.13906],[-78.52431,-7.13865],[-78.52432,-7.13852],[-78.52453,-7.1384],[-78.52458,-7.13806],[-78.52453,-7.13743],[-78.52437,-7.13733],[-78.52451,-7.13684],[-78.52441,-7.13681],[-78.52436,-7.13658],[-78.52431,-7.13545],[-78.52432,-7.13387],[-78.52441,-7.13319],[-78.52448,-7.13319],[-78.52453,-7.13307],[-78.52457,-7.13283],[-78.52457,-7.13161],[-78.52448,-7.13125],[-78.52441,-7.13125],[-78.52432,-7.13109],[-78.52427,-7.13057],[-78.5241,-7.13042],[-78.52387,-7.13038],[-78.52391,-7.12984],[-78.52351,-7.1295],[-78.52337,-7.12901],[-78.52302,-7.12875],[-78.52286,-7.12797],[-78.52269,-7.12788],[-78.52262,-7.12747],[-78.52238,-7.12731],[-78.52236,-7.12719],[-78.52259,-7.12701],[-78.52266,-7.12618],[-78.52274,-7.12597],[-78.52286,-7.1259],[-78.52292,-7.12528],[-78.52302,-7.12488],[-78.52337,-7.1246],[-78.52352,-7.12406],[-78.5237,-7.12396],[-78.5238,-7.12299],[-78.52399,-7.12285],[-78.52439,-7.12182],[-78.52486,-7.12142],[-78.52484,-7.1213],[-78.5246,-7.12115],[-78.52464,-7.12073],[-78.52481,-7.12066],[-78.52486,-7.12035],[-78.52502,-7.12007],[-78.52564,-7.11957],[-78.52573,-7.11936],[-78.52604,-7.11931],[-78.52622,-7.1192],[-78.52628,-7.11884],[-78.5267,-7.11849],[-78.52691,-7.1179],[-78.52726,-7.11767],[-78.52736,-7.11753],[-78.52731,-7.11738],[-78.52714,-7.11733],[-78.52708,-7.11701],[-78.52714,-7.11684],[-78.52731,-7.11672],[-78.52741,-7.1155],[-78.52762,-7.11531],[-78.52762,-7.11497],[-78.52747,-7.11486]],[[-78.47788,-7.15875],[-78.47809,-7.15885],[-78.47802,-7.1591],[-78.47783,-7.15927],[-78.47757,-7.15931],[-78.4774,-7.1592],[-78.47736,-7.15896],[-78.47741,-7.15885],[-78.47767,-7.15875],[-78.47788,-7.15875]],[[-78.47837,-7.15736],[-78.47845,-7.15741],[-78.47847,-7.15753],[-78.47842,-7.15762],[-78.4783,-7.15764],[-78.47821,-7.15759],[-78.47819,-7.15747],[-78.47825,-7.15738],[-78.47837,-7.15736]],[[-78.47865,-7.15792],[-78.47873,-7.15797],[-78.47875,-7.15809],[-78.4787,-7.15818],[-78.47858,-7.15819],[-78.47849,-7.15814],[-78.47847,-7.15802],[-78.47852,-7.15793],[-78.47865,-7.15792]],[[-78.47865,-7.16097],[-78.47873,-7.16102],[-78.47875,-7.16115],[-78.4787,-7.16123],[-78.47858,-7.16125],[-78.47849,-7.1612],[-78.47847,-7.16108],[-78.47852,-7.16099],[-78.47865,-7.16097]],[[-78.47865,-7.16208],[-78.47873,-7.16214],[-78.47875,-7.16226],[-78.4787,-7.16234],[-78.47858,-7.16236],[-78.47849,-7.16231],[-78.47847,-7.16219],[-78.47852,-7.1621],[-78.47865,-7.16208]],[[-78.47892,-7.15625],[-78.47903,-7.15635],[-78.47898,-7.15651],[-78.47858,-7.15653],[-78.47847,-7.15642],[-78.47852,-7.15627],[-78.47892,-7.15625]],[[-78.47976,-7.15597],[-78.47986,-7.15608],[-78.47981,-7.15623],[-78.47941,-7.15625],[-78.47931,-7.15615],[-78.47936,-7.15599],[-78.47976,-7.15597]],[[-78.47976,-7.15681],[-78.47984,-7.15686],[-78.47986,-7.15698],[-78.47981,-7.15707],[-78.47969,-7.15708],[-78.4796,-7.15703],[-78.47958,-7.15691],[-78.47964,-7.15682],[-78.47976,-7.15681]],[[-78.48253,-7.14819],[-78.48262,-7.14825],[-78.48264,-7.14837],[-78.48259,-7.14845],[-78.48247,-7.14847],[-78.48238,-7.14842],[-78.48236,-7.1483],[-78.48241,-7.14821],[-78.48253,-7.14819]],[[-78.48872,-7.14597],[-78.48898,-7.14602],[-78.48903,-7.14615],[-78.48887,-7.14623],[-78.48851,-7.14625],[-78.48825,-7.1462],[-78.48819,-7.14608],[-78.48835,-7.14599],[-78.48872,-7.14597]],[[-78.4917,-7.14236],[-78.49179,-7.14241],[-78.49181,-7.14253],[-78.49175,-7.14262],[-78.49163,-7.14264],[-78.49155,-7.14259],[-78.49153,-7.14247],[-78.49158,-7.14238],[-78.4917,-7.14236]],[[-78.51531,-7.14292],[-78.51542,-7.14302],[-78.51536,-7.14318],[-78.51497,-7.14319],[-78.51486,-7.14309],[-78.51491,-7.14293],[-78.51531,-7.14292]]]]}},{"type":"Feature","properties":{"clave":"mashcon:relieve:2","tipo":"estimada","subtipo":"bajo_2m","orden":2,"nombre":"Zona que podría inundarse si el río se desborda","texto":"El terreno está apenas por encima del cauce, según el relieve. Si el río se desborda, el agua llegaría primero a estas zonas bajas y cercanas. Es una estimación hecha con el relieve: no considera muros, puentes ni drenajes y no es un mapa oficial.","fuente":"Estimación SIMPAC: altura sobre el cauce (HAND) con el modelo de elevación Copernicus GLO-30","fuente_url":"https://registry.opendata.aws/copernicus-dem/","licencia":"ODbL 1.0 (usa el trazo de OSM) con aviso Copernicus","atribucion":"Elaborado con Copernicus WorldDEM-30 © DLR e.V. 2010-2014 y © Airbus Defence and Space GmbH 2014-2018, provisto bajo COPERNICUS por la Unión Europea y la ESA; todos los derechos reservados. Trazo del río: © colaboradores de OpenStreetMap (openstreetmap.org/copyright)","metodo":"HAND sobre Copernicus GLO-30 (30 m) con el trazo OSM grabado, relleno de depresiones y D8; solo zonas conectadas al río y a menos de 1,5 km; suavizado. Error vertical del modelo 2-3 m: los umbrales se leen como 'más bajo / bajo / algo bajo', no como metros exactos. En zonas con edificios o árboles se queda corto (es un modelo de superficie).","fecha_fuente":"2026-10-02","area_km2":1.317},"geometry":{"type":"MultiPolygon","coordinates":[[[[-78.47858,-7.16458],[-78.4783,-7.16458],[-78.47825,-7.16472],[-78.47818,-7.16639],[-78.47809,-7.16681],[-78.47793,-7.1667],[-78.47786,-7.16628],[-78.47774,-7.16625],[-78.47766,-7.16656],[-78.4776,-7.1676],[-78.47743,-7.16792],[-78.47729,-7.16792],[-78.47717,-7.16802],[-78.47729,-7.16844],[-78.47714,-7.16851],[-78.47705,-7.16891],[-78.47688,-7.16892],[-78.47663,-7.16882],[-78.47653,-7.16885],[-78.47655,-7.16898],[-78.47675,-7.16908],[-78.47681,-7.16955],[-78.4767,-7.16976],[-78.47635,-7.16965],[-78.47625,-7.16969],[-78.47627,-7.16981],[-78.47651,-7.16997],[-78.47649,-7.1703],[-78.47595,-7.17026],[-78.47571,-7.17059],[-78.47535,-7.17069],[-78.47526,-7.17085],[-78.4753,-7.17299],[-78.47521,-7.17309],[-78.47507,-7.17302],[-78.4749,-7.17304],[-78.47483,-7.17339],[-78.47451,-7.17365],[-78.47429,-7.17363],[-78.47394,-7.17323],[-78.47368,-7.17319],[-78.47351,-7.1733],[-78.47342,-7.17365],[-78.47278,-7.17384],[-78.47253,-7.17427],[-78.47233,-7.17505],[-78.4721,-7.17524],[-78.47203,-7.17566],[-78.47188,-7.17573],[-78.47201,-7.17622],[-78.47182,-7.17635],[-78.47175,-7.17677],[-78.47158,-7.17682],[-78.47153,-7.17691],[-78.47155,-7.17703],[-78.47179,-7.17719],[-78.47186,-7.1776],[-78.47207,-7.17774],[-78.47207,-7.17809],[-78.47182,-7.17825],[-78.47181,-7.17837],[-78.47191,-7.17851],[-78.47226,-7.17868],[-78.47236,-7.17865],[-78.47241,-7.17849],[-78.47259,-7.17851],[-78.47262,-7.17892],[-78.47238,-7.17908],[-78.47236,-7.1792],[-78.47241,-7.17929],[-78.47262,-7.17936],[-78.47264,-7.17948],[-78.47248,-7.17957],[-78.47193,-7.17964],[-78.47175,-7.17974],[-78.47134,-7.18026],[-78.47104,-7.18045],[-78.47115,-7.18076],[-78.47113,-7.18094],[-78.4708,-7.18101],[-78.47069,-7.18118],[-78.47066,-7.18142],[-78.47049,-7.18153],[-78.47017,-7.18158],[-78.47009,-7.18179],[-78.46988,-7.18186],[-78.46983,-7.18203],[-78.46941,-7.1821],[-78.46925,-7.18234],[-78.46913,-7.18236],[-78.46899,-7.18226],[-78.46877,-7.18191],[-78.4684,-7.18181],[-78.46818,-7.18212],[-78.46802,-7.18285],[-78.46788,-7.18316],[-78.46767,-7.18337],[-78.4674,-7.18347],[-78.46681,-7.18351],[-78.46667,-7.18358],[-78.46663,-7.18368],[-78.46674,-7.18399],[-78.46655,-7.18408],[-78.46653,-7.1842],[-78.46601,-7.18429],[-78.46427,-7.18429],[-78.46375,-7.1842],[-78.4637,-7.18405],[-78.46358,-7.18403],[-78.46349,-7.18408],[-78.46342,-7.18429],[-78.46325,-7.18434],[-78.46318,-7.18476],[-78.46309,-7.18486],[-78.46297,-7.18484],[-78.46281,-7.1846],[-78.4624,-7.18453],[-78.46226,-7.18432],[-78.46193,-7.18434],[-78.46189,-7.18441],[-78.46198,-7.18465],[-78.46217,-7.18483],[-78.4626,-7.18491],[-78.46266,-7.18509],[-78.46286,-7.18517],[-78.46295,-7.18559],[-78.46302,-7.18566],[-78.46326,-7.18569],[-78.46359,-7.18549],[-78.4642,-7.18479],[-78.46462,-7.18458],[-78.46509,-7.18464],[-78.46514,-7.18476],[-78.4654,-7.18484],[-78.46627,-7.18484],[-78.46653,-7.18476],[-78.46658,-7.1846],[-78.46675,-7.18457],[-78.46684,-7.18436],[-78.46726,-7.18429],[-78.46736,-7.18413],[-78.46755,-7.18406],[-78.46927,-7.18385],[-78.46988,-7.18366],[-78.47033,-7.18335],[-78.47062,-7.18292],[-78.47095,-7.18191],[-78.4712,-7.18156],[-78.47149,-7.18132],[-78.47227,-7.1809],[-78.47247,-7.1804],[-78.47283,-7.18009],[-78.47302,-7.17951],[-78.47316,-7.17878],[-78.4733,-7.17847],[-78.47345,-7.17858],[-78.47352,-7.17899],[-78.47365,-7.17903],[-78.47373,-7.17887],[-78.4738,-7.17825],[-78.47401,-7.17814],[-78.47399,-7.17799],[-78.47351,-7.17813],[-78.47337,-7.17793],[-78.47295,-7.17786],[-78.47295,-7.17769],[-78.47326,-7.17764],[-78.47339,-7.17753],[-78.4733,-7.17729],[-78.47318,-7.17719],[-78.47278,-7.17708],[-78.47229,-7.17707],[-78.47208,-7.17698],[-78.47214,-7.17682],[-78.47231,-7.17677],[-78.47236,-7.17646],[-78.47252,-7.17618],[-78.47314,-7.17578],[-78.47326,-7.17592],[-78.4734,-7.17595],[-78.4741,-7.17601],[-78.47431,-7.17618],[-78.47434,-7.17642],[-78.47441,-7.17649],[-78.47474,-7.17649],[-78.47476,-7.17632],[-78.47465,-7.17601],[-78.47481,-7.17592],[-78.47484,-7.17582],[-78.47491,-7.17519],[-78.47507,-7.1751],[-78.47495,-7.17469],[-78.47507,-7.17458],[-78.47538,-7.17464],[-78.47543,-7.17481],[-78.47552,-7.17486],[-78.47564,-7.17484],[-78.47569,-7.17469],[-78.47585,-7.1746],[-78.47639,-7.17462],[-78.47663,-7.17479],[-78.47684,-7.1751],[-78.47698,-7.17514],[-78.47707,-7.17509],[-78.47707,-7.17491],[-78.47686,-7.17481],[-78.47681,-7.17434],[-78.47691,-7.17408],[-78.47733,-7.17398],[-78.47738,-7.1738],[-78.47759,-7.1737],[-78.47762,-7.17307],[-78.47753,-7.17292],[-78.47738,-7.17286],[-78.47736,-7.17274],[-78.47759,-7.17257],[-78.47766,-7.17174],[-78.47774,-7.17153],[-78.47785,-7.17149],[-78.47766,-7.17108],[-78.47743,-7.17097],[-78.47719,-7.17095],[-78.47708,-7.1708],[-78.47719,-7.17071],[-78.4776,-7.17064],[-78.47762,-7.17047],[-78.47738,-7.17031],[-78.4774,-7.16998],[-78.47747,-7.16995],[-78.47785,-7.17003],[-78.47799,-7.16997],[-78.47849,-7.16936],[-78.4787,-7.16927],[-78.4788,-7.16882],[-78.47927,-7.1684],[-78.47941,-7.16816],[-78.47948,-7.16781],[-78.47948,-7.16736],[-78.47927,-7.16611],[-78.4792,-7.16597],[-78.47905,-7.16587],[-78.47898,-7.16545],[-78.4788,-7.1654],[-78.47873,-7.16519],[-78.47854,-7.1651],[-78.47868,-7.16469],[-78.47868,-7.16462],[-78.47858,-7.16458]],[[-78.46365,-7.18431],[-78.46373,-7.18436],[-78.46375,-7.18448],[-78.4637,-7.18457],[-78.46358,-7.18458],[-78.46349,-7.18453],[-78.46347,-7.18441],[-78.46352,-7.18432],[-78.46365,-7.18431]],[[-78.46365,-7.18486],[-78.46373,-7.18491],[-78.46375,-7.18503],[-78.4637,-7.18512],[-78.46358,-7.18514],[-78.46349,-7.18509],[-78.46347,-7.18497],[-78.46352,-7.18488],[-78.46365,-7.18486]],[[-78.46892,-7.18236],[-78.46901,-7.18241],[-78.46903,-7.18253],[-78.46898,-7.18262],[-78.46885,-7.18264],[-78.46877,-7.18259],[-78.46875,-7.18247],[-78.4688,-7.18238],[-78.46892,-7.18236]],[[-78.47031,-7.18208],[-78.47042,-7.18219],[-78.47036,-7.18234],[-78.46997,-7.18236],[-78.46986,-7.18226],[-78.46991,-7.1821],[-78.47031,-7.18208]],[[-78.47142,-7.18042],[-78.47151,-7.18047],[-78.47153,-7.18059],[-78.47148,-7.18068],[-78.47135,-7.18069],[-78.47127,-7.18064],[-78.47125,-7.18052],[-78.4713,-7.18043],[-78.47142,-7.18042]],[[-78.47281,-7.17736],[-78.47292,-7.17747],[-78.47286,-7.17762],[-78.47247,-7.17764],[-78.47236,-7.17753],[-78.47241,-7.17738],[-78.47281,-7.17736]],[[-78.47448,-7.17514],[-78.47457,-7.17519],[-78.47458,-7.17531],[-78.47453,-7.1754],[-78.47441,-7.17542],[-78.47432,-7.17536],[-78.47431,-7.17524],[-78.47436,-7.17516],[-78.47448,-7.17514]],[[-78.47476,-7.17486],[-78.47484,-7.17491],[-78.47486,-7.17503],[-78.47481,-7.17512],[-78.47469,-7.17514],[-78.4746,-7.17509],[-78.47458,-7.17497],[-78.47464,-7.17488],[-78.47476,-7.17486]],[[-78.47559,-7.17319],[-78.47568,-7.17325],[-78.47569,-7.17337],[-78.47564,-7.17345],[-78.47552,-7.17347],[-78.47543,-7.17342],[-78.47542,-7.1733],[-78.47547,-7.17321],[-78.47559,-7.17319]],[[-78.47587,-7.17069],[-78.47595,-7.17075],[-78.47597,-7.17087],[-78.47592,-7.17095],[-78.4758,-7.17097],[-78.47571,-7.17092],[-78.47569,-7.1708],[-78.47575,-7.17071],[-78.47587,-7.17069]],[[-78.47615,-7.17042],[-78.47623,-7.17047],[-78.47625,-7.17059],[-78.4762,-7.17068],[-78.47608,-7.17069],[-78.47599,-7.17064],[-78.47597,-7.17052],[-78.47602,-7.17043],[-78.47615,-7.17042]],[[-78.47642,-7.17375],[-78.47653,-7.17396],[-78.47649,-7.1742],[-78.47642,-7.17427],[-78.47618,-7.17431],[-78.47606,-7.1742],[-78.47608,-7.1741],[-78.47622,-7.17385],[-78.47642,-7.17375]],[[-78.47688,-7.17319],[-78.47705,-7.17325],[-78.47708,-7.17337],[-78.47698,-7.17351],[-78.47674,-7.17365],[-78.47656,-7.17363],[-78.47653,-7.1734],[-78.47663,-7.17323],[-78.47688,-7.17319]],[[-78.47753,-7.16875],[-78.47762,-7.1688],[-78.47764,-7.16892],[-78.47759,-7.16901],[-78.47747,-7.16903],[-78.47738,-7.16898],[-78.47736,-7.16885],[-78.47741,-7.16877],[-78.47753,-7.16875]],[[-78.47781,-7.16792],[-78.4779,-7.16797],[-78.47792,-7.16809],[-78.47786,-7.16818],[-78.47774,-7.16819],[-78.47766,-7.16814],[-78.47764,-7.16802],[-78.47769,-7.16793],[-78.47781,-7.16792]],[[-78.47781,-7.16847],[-78.4779,-7.16852],[-78.47792,-7.16865],[-78.47786,-7.16873],[-78.47774,-7.16875],[-78.47766,-7.1687],[-78.47764,-7.16858],[-78.47769,-7.16849],[-78.47781,-7.16847]],[[-78.47837,-7.16792],[-78.47845,-7.16797],[-78.47847,-7.16809],[-78.47842,-7.16818],[-78.4783,-7.16819],[-78.47821,-7.16814],[-78.47819,-7.16802],[-78.47825,-7.16793],[-78.47837,-7.16792]]],[[[-78.52747,-7.11486],[-78.52719,-7.11486],[-78.52712,-7.11503],[-78.52677,-7.11747],[-78.5267,-7.11764],[-78.52655,-7.11774],[-78.52649,-7.11811],[-78.52608,-7.11845],[-78.52594,-7.11894],[-78.52545,-7.11934],[-78.52538,-7.11953],[-78.52495,-7.11962],[-78.52455,-7.1201],[-78.52434,-7.12021],[-78.52399,-7.12118],[-78.52377,-7.1213],[-78.52377,-7.12148],[-78.52401,-7.12163],[-78.52399,-7.122],[-78.52356,-7.12243],[-78.52319,-7.12398],[-78.52306,-7.12429],[-78.52252,-7.12486],[-78.52236,-7.12549],[-78.52231,-7.12642],[-78.52214,-7.12661],[-78.5221,-7.12679],[-78.5221,-7.12766],[-78.52214,-7.12783],[-78.52234,-7.12807],[-78.52241,-7.1287],[-78.52259,-7.12878],[-78.52274,-7.12932],[-78.52299,-7.12948],[-78.52321,-7.12977],[-78.52351,-7.13062],[-78.52373,-7.1308],[-78.5238,-7.13122],[-78.52401,-7.13135],[-78.52408,-7.13177],[-78.52425,-7.13182],[-78.52431,-7.13191],[-78.52429,-7.13203],[-78.52408,-7.13214],[-78.52401,-7.13276],[-78.52392,-7.13292],[-78.52382,-7.13295],[-78.52396,-7.13344],[-78.52385,-7.13347],[-78.5238,-7.13363],[-78.52375,-7.13503],[-78.52365,-7.13582],[-78.52354,-7.13597],[-78.52332,-7.13604],[-78.52328,-7.13618],[-78.52344,-7.13688],[-78.52358,-7.13708],[-78.5237,-7.13712],[-78.52377,-7.13753],[-78.52398,-7.13773],[-78.52408,-7.13894],[-78.52425,-7.13906],[-78.52432,-7.13948],[-78.5245,-7.13964],[-78.52411,-7.14026],[-78.5238,-7.14047],[-78.52375,-7.14094],[-78.52365,-7.1412],[-78.52326,-7.1413],[-78.52312,-7.14141],[-78.52257,-7.14203],[-78.52219,-7.14212],[-78.52201,-7.14255],[-78.52187,-7.14266],[-78.52118,-7.14288],[-78.52089,-7.14314],[-78.51967,-7.14325],[-78.51955,-7.14342],[-78.51913,-7.14349],[-78.51903,-7.14365],[-78.51889,-7.1437],[-78.51722,-7.14373],[-78.51681,-7.14365],[-78.51675,-7.14352],[-78.51665,-7.14349],[-78.51602,-7.14342],[-78.51597,-7.14337],[-78.51601,-7.14325],[-78.51632,-7.14319],[-78.51644,-7.14309],[-78.51627,-7.14274],[-78.51604,-7.14264],[-78.51568,-7.14274],[-78.51533,-7.14316],[-78.51497,-7.14318],[-78.51486,-7.14309],[-78.51491,-7.14293],[-78.51554,-7.14245],[-78.51569,-7.14226],[-78.51566,-7.14214],[-78.51524,-7.14207],[-78.51514,-7.14191],[-78.51524,-7.14182],[-78.51549,-7.14181],[-78.51566,-7.1417],[-78.51575,-7.14128],[-78.51592,-7.14118],[-78.51597,-7.14056],[-78.51608,-7.14026],[-78.51618,-7.14024],[-78.51642,-7.14035],[-78.51653,-7.14031],[-78.51651,-7.14019],[-78.5163,-7.14009],[-78.51625,-7.13962],[-78.51615,-7.13936],[-78.51582,-7.13927],[-78.51578,-7.1392],[-78.51589,-7.13885],[-78.51585,-7.13878],[-78.51562,-7.13875],[-78.51545,-7.13885],[-78.51542,-7.1391],[-78.51526,-7.13938],[-78.51458,-7.13997],[-78.5146,-7.14009],[-78.51476,-7.14014],[-78.51481,-7.14023],[-78.51486,-7.14101],[-78.51481,-7.14144],[-78.51464,-7.1416],[-78.5146,-7.14174],[-78.51457,-7.14243],[-78.51448,-7.14264],[-78.51432,-7.14253],[-78.51427,-7.1422],[-78.5142,-7.14217],[-78.51382,-7.14226],[-78.51368,-7.14219],[-78.51323,-7.14167],[-78.51278,-7.14142],[-78.51215,-7.14122],[-78.51208,-7.14108],[-78.51172,-7.14099],[-78.51087,-7.14097],[-78.51016,-7.14113],[-78.50993,-7.14128],[-78.50957,-7.14175],[-78.50936,-7.14182],[-78.50931,-7.14198],[-78.50915,-7.14203],[-78.50774,-7.14208],[-78.50696,-7.14203],[-78.50681,-7.14198],[-78.50675,-7.14186],[-78.50613,-7.14179],[-78.50602,-7.14175],[-78.50597,-7.14163],[-78.5055,-7.14155],[-78.50363,-7.14158],[-78.50347,-7.14163],[-78.50337,-7.14179],[-78.50302,-7.14182],[-78.50292,-7.14198],[-78.50269,-7.14205],[-78.50066,-7.14226],[-78.49943,-7.1425],[-78.4991,-7.14267],[-78.49868,-7.14314],[-78.4983,-7.14321],[-78.49811,-7.1434],[-78.49705,-7.14328],[-78.4967,-7.1434],[-78.49663,-7.14354],[-78.49648,-7.14365],[-78.4959,-7.14375],[-78.49497,-7.1437],[-78.49476,-7.14349],[-78.49434,-7.14342],[-78.49422,-7.14325],[-78.493,-7.14314],[-78.49283,-7.14295],[-78.49179,-7.14267],[-78.49153,-7.14253],[-78.49149,-7.14241],[-78.49132,-7.14236],[-78.49108,-7.1424],[-78.49101,-7.14247],[-78.49095,-7.14281],[-78.4908,-7.14292],[-78.49071,-7.14281],[-78.49068,-7.14247],[-78.49052,-7.14236],[-78.49038,-7.14247],[-78.49021,-7.14281],[-78.4904,-7.14307],[-78.49042,-7.14344],[-78.49031,-7.1437],[-78.48995,-7.14378],[-78.48958,-7.1442],[-78.48944,-7.14427],[-78.4888,-7.14436],[-78.48873,-7.14453],[-78.48865,-7.14458],[-78.48858,-7.14458],[-78.48849,-7.14438],[-78.48845,-7.14368],[-78.48837,-7.14347],[-78.48825,-7.14349],[-78.48809,-7.14373],[-78.48774,-7.14378],[-78.48764,-7.14396],[-78.4876,-7.1442],[-78.48753,-7.14427],[-78.48729,-7.14431],[-78.48712,-7.14415],[-78.48707,-7.14363],[-78.48698,-7.14347],[-78.48691,-7.14347],[-78.48682,-7.14358],[-78.48675,-7.14399],[-78.48655,-7.14413],[-78.48648,-7.14455],[-78.48627,-7.14469],[-78.4862,-7.1451],[-78.48599,-7.14524],[-78.48592,-7.14566],[-78.48575,-7.14571],[-78.48566,-7.1459],[-78.48535,-7.1458],[-78.48517,-7.14582],[-78.48512,-7.14615],[-78.48503,-7.14625],[-78.48488,-7.1462],[-78.48481,-7.14599],[-78.48464,-7.14599],[-78.48457,-7.1462],[-78.48436,-7.1463],[-78.48429,-7.14693],[-78.4842,-7.14708],[-78.48405,-7.14703],[-78.48399,-7.14686],[-78.48368,-7.14681],[-78.48345,-7.14691],[-78.48319,-7.14726],[-78.48255,-7.14743],[-78.48257,-7.14778],[-78.48283,-7.1484],[-78.48266,-7.14858],[-78.48259,-7.14899],[-78.48241,-7.1491],[-78.48238,-7.14993],[-78.48247,-7.15014],[-78.48267,-7.15024],[-78.48283,-7.15059],[-78.4828,-7.15066],[-78.48257,-7.15069],[-78.48245,-7.15078],[-78.48234,-7.15095],[-78.48219,-7.15156],[-78.482,-7.152],[-78.48188,-7.15208],[-78.48156,-7.15214],[-78.48151,-7.15231],[-78.48128,-7.15245],[-78.48108,-7.15323],[-78.48089,-7.15361],[-78.4805,-7.15359],[-78.48062,-7.15399],[-78.48038,-7.15413],[-78.48016,-7.1545],[-78.47969,-7.15483],[-78.47955,-7.15507],[-78.47913,-7.15497],[-78.47903,-7.15517],[-78.47899,-7.15552],[-78.47892,-7.15559],[-78.47858,-7.1555],[-78.47851,-7.15554],[-78.47851,-7.15587],[-78.47858,-7.15594],[-78.47892,-7.15601],[-78.47903,-7.15618],[-78.47903,-7.15632],[-78.47887,-7.15649],[-78.47851,-7.15653],[-78.47819,-7.15674],[-78.47795,-7.15743],[-78.47781,-7.15764],[-78.47769,-7.15767],[-78.47764,-7.15785],[-78.47774,-7.15821],[-78.47816,-7.15856],[-78.47818,-7.15892],[-78.47793,-7.15908],[-78.47788,-7.15925],[-78.47771,-7.15931],[-78.4774,-7.15925],[-78.47734,-7.15908],[-78.47719,-7.15903],[-78.47715,-7.15929],[-78.47736,-7.16016],[-78.4775,-7.16033],[-78.47767,-7.16042],[-78.47788,-7.16042],[-78.47802,-7.16052],[-78.47809,-7.16073],[-78.47799,-7.16198],[-78.47802,-7.16208],[-78.47818,-7.16219],[-78.47819,-7.16243],[-78.47814,-7.1626],[-78.47797,-7.16266],[-78.47792,-7.16281],[-78.47797,-7.1629],[-78.47814,-7.16297],[-78.47819,-7.16344],[-78.47814,-7.1637],[-78.47793,-7.1638],[-78.47793,-7.16398],[-78.47814,-7.16405],[-78.4783,-7.16429],[-78.47865,-7.16425],[-78.47875,-7.16399],[-78.4787,-7.16352],[-78.47849,-7.16342],[-78.47847,-7.1633],[-78.47854,-7.16325],[-78.47917,-7.16319],[-78.47934,-7.16314],[-78.47941,-7.16304],[-78.47938,-7.16288],[-78.4791,-7.16252],[-78.47896,-7.16241],[-78.47858,-7.16234],[-78.47847,-7.16226],[-78.47858,-7.1621],[-78.47899,-7.16203],[-78.47903,-7.16191],[-78.47892,-7.16182],[-78.47859,-7.16177],[-78.47858,-7.1616],[-78.47868,-7.16128],[-78.47852,-7.16123],[-78.47847,-7.16108],[-78.47863,-7.16099],[-78.47925,-7.16092],[-78.47931,-7.1608],[-78.47915,-7.16071],[-78.47863,-7.16064],[-78.47847,-7.16038],[-78.47851,-7.16002],[-78.47868,-7.15986],[-78.47905,-7.15976],[-78.47939,-7.15934],[-78.47965,-7.15931],[-78.47972,-7.15936],[-78.47972,-7.15946],[-78.47951,-7.15983],[-78.4795,-7.16009],[-78.47962,-7.16014],[-78.47998,-7.1601],[-78.48009,-7.16003],[-78.48016,-7.15969],[-78.48031,-7.15958],[-78.4804,-7.15932],[-78.48042,-7.15872],[-78.48035,-7.1584],[-78.48021,-7.15813],[-78.47953,-7.15748],[-78.47943,-7.15731],[-78.47941,-7.15715],[-78.47955,-7.15691],[-78.47976,-7.15681],[-78.47997,-7.15707],[-78.48031,-7.15707],[-78.48047,-7.15682],[-78.48064,-7.15677],[-78.48073,-7.15635],[-78.4808,-7.15628],[-78.48104,-7.15625],[-78.48127,-7.15635],[-78.48142,-7.1566],[-78.48167,-7.15677],[-78.4822,-7.15682],[-78.48236,-7.15691],[-78.48234,-7.15703],[-78.4821,-7.15719],[-78.4821,-7.15753],[-78.48219,-7.15764],[-78.48231,-7.1576],[-78.48238,-7.15719],[-78.48247,-7.15708],[-78.48262,-7.15719],[-78.48264,-7.15743],[-78.48295,-7.1576],[-78.48398,-7.1576],[-78.48415,-7.15753],[-78.4842,-7.15743],[-78.48413,-7.15729],[-78.48394,-7.15717],[-78.48358,-7.15724],[-78.48351,-7.15714],[-78.48342,-7.15646],[-78.48332,-7.15632],[-78.4828,-7.1562],[-78.48269,-7.15609],[-78.48255,-7.15556],[-78.48238,-7.15542],[-78.48153,-7.15512],[-78.48139,-7.15495],[-78.48135,-7.15472],[-78.48156,-7.1541],[-78.48174,-7.15399],[-78.4816,-7.15351],[-78.48175,-7.15344],[-78.48181,-7.15312],[-78.48191,-7.15295],[-78.48226,-7.15288],[-78.48233,-7.15281],[-78.48238,-7.15247],[-78.48259,-7.15229],[-78.48264,-7.15167],[-78.48274,-7.15132],[-78.48316,-7.1512],[-78.48325,-7.15099],[-78.48345,-7.15092],[-78.48345,-7.15075],[-78.4833,-7.15069],[-78.48321,-7.15054],[-78.48325,-7.15002],[-78.48335,-7.14991],[-78.48385,-7.14983],[-78.48392,-7.14976],[-78.48382,-7.14934],[-78.48398,-7.14927],[-78.48403,-7.14896],[-78.48398,-7.14878],[-78.4838,-7.14873],[-78.48375,-7.14858],[-78.48396,-7.14849],[-78.48444,-7.14847],[-78.48495,-7.14826],[-78.48575,-7.14743],[-78.48615,-7.14733],[-78.4863,-7.14691],[-78.48703,-7.1467],[-78.48712,-7.14637],[-78.48719,-7.14634],[-78.48753,-7.14649],[-78.48764,-7.1467],[-78.4879,-7.14684],[-78.48877,-7.14701],[-78.48903,-7.14698],[-78.48899,-7.14686],[-78.48868,-7.14681],[-78.48851,-7.1467],[-78.48842,-7.14628],[-78.48821,-7.1462],[-78.48816,-7.14602],[-78.48785,-7.14597],[-78.48767,-7.14587],[-78.48764,-7.14563],[-78.48769,-7.14545],[-78.48786,-7.14543],[-78.48802,-7.14568],[-78.48844,-7.14575],[-78.48858,-7.14595],[-78.48892,-7.14592],[-78.48903,-7.14566],[-78.48906,-7.14528],[-78.48924,-7.14503],[-78.48955,-7.14493],[-78.48962,-7.14509],[-78.48993,-7.14514],[-78.4901,-7.14503],[-78.49017,-7.14467],[-78.49059,-7.14431],[-78.49066,-7.14417],[-78.49075,-7.14352],[-78.49092,-7.14345],[-78.49097,-7.1433],[-78.49108,-7.14325],[-78.49201,-7.14319],[-78.49253,-7.14325],[-78.4928,-7.14345],[-78.49342,-7.14352],[-78.49352,-7.1437],[-78.49363,-7.14373],[-78.49425,-7.1438],[-78.49434,-7.14398],[-78.49476,-7.14405],[-78.49486,-7.14413],[-78.49481,-7.14429],[-78.49464,-7.14434],[-78.49458,-7.14451],[-78.49464,-7.14483],[-78.49476,-7.14486],[-78.49484,-7.14476],[-78.49486,-7.14451],[-78.49502,-7.14439],[-78.4958,-7.1442],[-78.4972,-7.14399],[-78.49736,-7.14392],[-78.49743,-7.1438],[-78.49757,-7.14377],[-78.4984,-7.1437],[-78.49851,-7.14352],[-78.49905,-7.14337],[-78.49939,-7.14295],[-78.49976,-7.1429],[-78.49986,-7.14274],[-78.50005,-7.14267],[-78.50273,-7.14233],[-78.50292,-7.14226],[-78.50297,-7.14214],[-78.50307,-7.1421],[-78.5037,-7.14203],[-78.50375,-7.14191],[-78.50387,-7.14186],[-78.50448,-7.14181],[-78.50557,-7.14186],[-78.50569,-7.14191],[-78.50575,-7.14203],[-78.50637,-7.1421],[-78.50648,-7.14214],[-78.50653,-7.14226],[-78.50672,-7.14231],[-78.50844,-7.14236],[-78.50906,-7.14229],[-78.50955,-7.14215],[-78.5099,-7.14194],[-78.51033,-7.14146],[-78.51057,-7.14132],[-78.51111,-7.14125],[-78.51146,-7.1413],[-78.51161,-7.14149],[-78.5124,-7.1417],[-78.51293,-7.14194],[-78.5134,-7.14248],[-78.51368,-7.14264],[-78.51396,-7.14269],[-78.51451,-7.14332],[-78.51479,-7.14347],[-78.5151,-7.14352],[-78.51523,-7.1437],[-78.51627,-7.14377],[-78.51644,-7.1438],[-78.51663,-7.14398],[-78.51684,-7.14401],[-78.51809,-7.14408],[-78.51819,-7.14413],[-78.51823,-7.14425],[-78.51854,-7.14431],[-78.51872,-7.14425],[-78.51885,-7.14405],[-78.51927,-7.14398],[-78.51941,-7.14377],[-78.51983,-7.1437],[-78.51986,-7.14358],[-78.51998,-7.14351],[-78.52108,-7.1433],[-78.52179,-7.14306],[-78.52243,-7.14241],[-78.52288,-7.14231],[-78.52293,-7.14214],[-78.52318,-7.14203],[-78.52368,-7.14141],[-78.52396,-7.14125],[-78.5242,-7.14122],[-78.52431,-7.14104],[-78.52434,-7.14078],[-78.52476,-7.14038],[-78.52486,-7.1399],[-78.52483,-7.13927],[-78.52476,-7.13906],[-78.52431,-7.13865],[-78.52432,-7.13852],[-78.52451,-7.13844],[-78.52437,-7.13795],[-78.52453,-7.13788],[-78.52458,-7.13757],[-78.52453,-7.1374],[-78.52436,-7.13729],[-78.52425,-7.13632],[-78.52403,-7.13615],[-78.52405,-7.13602],[-78.5242,-7.13597],[-78.52429,-7.13582],[-78.52429,-7.1353],[-78.5242,-7.13514],[-78.52405,-7.13509],[-78.52403,-7.13497],[-78.52408,-7.13488],[-78.52425,-7.13483],[-78.52431,-7.13451],[-78.52425,-7.13434],[-78.52408,-7.13429],[-78.52403,-7.13413],[-78.52408,-7.13405],[-78.52429,-7.13398],[-78.52431,-7.13385],[-78.52425,-7.13377],[-78.52405,-7.1337],[-78.52403,-7.13358],[-78.52413,-7.13344],[-78.52437,-7.1333],[-78.52448,-7.13313],[-78.52458,-7.13247],[-78.52457,-7.13161],[-78.52448,-7.13125],[-78.52432,-7.13115],[-78.52425,-7.13073],[-78.52405,-7.13064],[-78.52398,-7.13043],[-78.5238,-7.13038],[-78.52373,-7.12997],[-78.52351,-7.12979],[-78.52323,-7.12896],[-78.52316,-7.12882],[-78.52293,-7.12865],[-78.52286,-7.12823],[-78.52267,-7.12811],[-78.52247,-7.12733],[-78.52243,-7.12689],[-78.52262,-7.12665],[-78.52269,-7.12602],[-78.52285,-7.12594],[-78.52271,-7.12545],[-78.52286,-7.12538],[-78.52302,-7.12484],[-78.52339,-7.12453],[-78.52378,-7.12302],[-78.52399,-7.12285],[-78.52427,-7.12201],[-78.52453,-7.12172],[-78.52464,-7.1205],[-78.5249,-7.12031],[-78.52528,-7.11979],[-78.52597,-7.11924],[-78.52628,-7.11878],[-78.52648,-7.11872],[-78.52655,-7.1183],[-78.52679,-7.11809],[-78.52686,-7.11767],[-78.52703,-7.11759],[-78.5271,-7.11696],[-78.52731,-7.11672],[-78.52734,-7.11655],[-78.52741,-7.1155],[-78.52759,-7.11538],[-78.52764,-7.11521],[-78.52762,-7.11497],[-78.52747,-7.11486]],[[-78.47781,-7.15958],[-78.47792,-7.15969],[-78.47786,-7.15984],[-78.47747,-7.15986],[-78.47736,-7.15976],[-78.47741,-7.1596],[-78.47781,-7.15958]],[[-78.47837,-7.15736],[-78.47845,-7.15741],[-78.47847,-7.15753],[-78.47842,-7.15762],[-78.4783,-7.15764],[-78.47821,-7.15759],[-78.47819,-7.15747],[-78.47825,-7.15738],[-78.47837,-7.15736]],[[-78.47865,-7.15792],[-78.47873,-7.15797],[-78.47875,-7.15809],[-78.4787,-7.15818],[-78.47858,-7.15819],[-78.47849,-7.15814],[-78.47847,-7.15802],[-78.47852,-7.15793],[-78.47865,-7.15792]],[[-78.47892,-7.15931],[-78.47901,-7.15936],[-78.47903,-7.15948],[-78.47898,-7.15957],[-78.47885,-7.15958],[-78.47877,-7.15953],[-78.47875,-7.15941],[-78.4788,-7.15932],[-78.47892,-7.15931]],[[-78.4792,-7.15792],[-78.47929,-7.15797],[-78.47931,-7.15809],[-78.47925,-7.15818],[-78.47913,-7.15819],[-78.47905,-7.15814],[-78.47903,-7.15802],[-78.47908,-7.15793],[-78.4792,-7.15792]],[[-78.47976,-7.15514],[-78.47986,-7.15556],[-78.47983,-7.15604],[-78.47965,-7.15625],[-78.47941,-7.15623],[-78.47931,-7.15608],[-78.47936,-7.15599],[-78.47953,-7.15592],[-78.4796,-7.1553],[-78.47969,-7.15514],[-78.47976,-7.15514]],[[-78.48003,-7.15847],[-78.48012,-7.15852],[-78.48014,-7.15865],[-78.48009,-7.15873],[-78.47997,-7.15875],[-78.47988,-7.1587],[-78.47986,-7.15858],[-78.47991,-7.15849],[-78.48003,-7.15847]],[[-78.48031,-7.15542],[-78.4804,-7.15547],[-78.48042,-7.15559],[-78.48036,-7.15568],[-78.48024,-7.15569],[-78.48016,-7.15564],[-78.48014,-7.15552],[-78.48019,-7.15543],[-78.48031,-7.15542]],[[-78.48115,-7.15514],[-78.48123,-7.15519],[-78.48125,-7.15531],[-78.4812,-7.1554],[-78.48108,-7.15542],[-78.48099,-7.15536],[-78.48097,-7.15524],[-78.48102,-7.15516],[-78.48115,-7.15514]],[[-78.4817,-7.15569],[-78.48179,-7.15575],[-78.48181,-7.15587],[-78.48175,-7.15595],[-78.48163,-7.15597],[-78.48155,-7.15592],[-78.48153,-7.1558],[-78.48158,-7.15571],[-78.4817,-7.15569]],[[-78.48253,-7.15625],[-78.48262,-7.1563],[-78.48264,-7.15642],[-78.48259,-7.15651],[-78.48247,-7.15653],[-78.48238,-7.15648],[-78.48236,-7.15635],[-78.48241,-7.15627],[-78.48253,-7.15625]],[[-78.48781,-7.14431],[-78.4879,-7.14436],[-78.48792,-7.14448],[-78.48786,-7.14457],[-78.48774,-7.14458],[-78.48766,-7.14453],[-78.48764,-7.14441],[-78.48769,-7.14432],[-78.48781,-7.14431]],[[-78.48809,-7.14458],[-78.48818,-7.14464],[-78.48819,-7.14476],[-78.48814,-7.14484],[-78.48802,-7.14486],[-78.48793,-7.14481],[-78.48792,-7.14469],[-78.48797,-7.1446],[-78.48809,-7.14458]],[[-78.51559,-7.13958],[-78.51569,-7.13969],[-78.51569,-7.14003],[-78.51564,-7.14012],[-78.51552,-7.14014],[-78.51542,-7.14003],[-78.51542,-7.13969],[-78.51547,-7.1396],[-78.51559,-7.13958]],[[-78.52392,-7.13653],[-78.52401,-7.13658],[-78.52403,-7.1367],[-78.52398,-7.13679],[-78.52385,-7.13681],[-78.52377,-7.13675],[-78.52375,-7.13663],[-78.5238,-7.13655],[-78.52392,-7.13653]]]]}},{"type":"Feature","properties":{"clave":"mashcon:relieve:1","tipo":"estimada","subtipo":"bajo_1m","orden":3,"nombre":"Zona más baja junto al río","texto":"El terreno está muy poco por encima del cauce, según el relieve: son las zonas más bajas y cercanas al río. Si el río se desborda, el agua llegaría primero aquí. Es una estimación hecha con el relieve: no considera muros, puentes ni drenajes y no es un mapa oficial.","fuente":"Estimación SIMPAC: altura sobre el cauce (HAND) con el modelo de elevación Copernicus GLO-30","fuente_url":"https://registry.opendata.aws/copernicus-dem/","licencia":"ODbL 1.0 (usa el trazo de OSM) con aviso Copernicus","atribucion":"Elaborado con Copernicus WorldDEM-30 © DLR e.V. 2010-2014 y © Airbus Defence and Space GmbH 2014-2018, provisto bajo COPERNICUS por la Unión Europea y la ESA; todos los derechos reservados. Trazo del río: © colaboradores de OpenStreetMap (openstreetmap.org/copyright)","metodo":"HAND sobre Copernicus GLO-30 (30 m) con el trazo OSM grabado, relleno de depresiones y D8; solo zonas conectadas al río y a menos de 1,5 km; suavizado. Error vertical del modelo 2-3 m: los umbrales se leen como 'más bajo / bajo / algo bajo', no como metros exactos. En zonas con edificios o árboles se queda corto (es un modelo de superficie).","fecha_fuente":"2026-10-02","area_km2":0.824},"geometry":{"type":"MultiPolygon","coordinates":[[[[-78.47858,-7.16458],[-78.4783,-7.16458],[-78.47825,-7.16472],[-78.47818,-7.16639],[-78.47809,-7.16681],[-78.47793,-7.1667],[-78.47786,-7.16628],[-78.47774,-7.16625],[-78.47771,-7.16637],[-78.47781,-7.16747],[-78.4778,-7.16807],[-78.47771,-7.16819],[-78.47747,-7.16818],[-78.47731,-7.16793],[-78.47719,-7.16792],[-78.47715,-7.16802],[-78.47729,-7.16844],[-78.47714,-7.16851],[-78.47705,-7.16891],[-78.47688,-7.16892],[-78.47663,-7.16882],[-78.47653,-7.16885],[-78.47655,-7.16898],[-78.4767,-7.16903],[-78.47679,-7.16918],[-78.47677,-7.16969],[-78.4766,-7.16976],[-78.47635,-7.16965],[-78.47625,-7.16969],[-78.4763,-7.16984],[-78.47648,-7.1699],[-78.47653,-7.17021],[-78.47642,-7.17033],[-78.47606,-7.17023],[-78.47587,-7.17035],[-78.47576,-7.17066],[-78.47595,-7.17075],[-78.47594,-7.17092],[-78.47552,-7.17095],[-78.47536,-7.17071],[-78.47519,-7.17075],[-78.47516,-7.17137],[-78.47536,-7.17163],[-78.47542,-7.17215],[-78.47542,-7.17257],[-78.47531,-7.17304],[-78.47521,-7.17309],[-78.47507,-7.17302],[-78.4749,-7.17304],[-78.47481,-7.17344],[-78.47464,-7.17349],[-78.47448,-7.17373],[-78.47406,-7.1738],[-78.47401,-7.17398],[-78.47392,-7.17403],[-78.4738,-7.17401],[-78.47375,-7.17385],[-78.47354,-7.17377],[-78.47306,-7.17375],[-78.47271,-7.17385],[-78.47259,-7.17427],[-78.47241,-7.17438],[-78.47236,-7.175],[-78.47226,-7.1754],[-78.47181,-7.1758],[-78.47186,-7.17595],[-78.47203,-7.17599],[-78.47208,-7.17608],[-78.47207,-7.1762],[-78.47191,-7.17625],[-78.47186,-7.17634],[-78.47181,-7.17712],[-78.47186,-7.17755],[-78.47203,-7.17767],[-78.47208,-7.17799],[-78.47203,-7.17816],[-78.47186,-7.17821],[-78.47181,-7.17837],[-78.47191,-7.17851],[-78.47226,-7.17868],[-78.47236,-7.17865],[-78.47241,-7.17849],[-78.47253,-7.17847],[-78.47259,-7.17854],[-78.47264,-7.17917],[-78.47253,-7.17957],[-78.47243,-7.17969],[-78.47219,-7.17979],[-78.47208,-7.17976],[-78.47203,-7.1796],[-78.47186,-7.17964],[-78.47177,-7.18024],[-78.4717,-7.18031],[-78.47134,-7.18026],[-78.47146,-7.18066],[-78.47127,-7.18075],[-78.47122,-7.18092],[-78.4709,-7.18097],[-78.47078,-7.18106],[-78.47059,-7.18149],[-78.47052,-7.18184],[-78.4704,-7.18208],[-78.47023,-7.18222],[-78.47,-7.18226],[-78.46948,-7.18219],[-78.46927,-7.18226],[-78.46868,-7.18286],[-78.4683,-7.18295],[-78.46811,-7.18339],[-78.46767,-7.18358],[-78.46705,-7.18373],[-78.46684,-7.18384],[-78.46663,-7.1841],[-78.46641,-7.1842],[-78.46549,-7.18431],[-78.46392,-7.18436],[-78.46375,-7.18441],[-78.46365,-7.18457],[-78.46323,-7.18464],[-78.46318,-7.18481],[-78.46309,-7.18486],[-78.46297,-7.18484],[-78.46281,-7.1846],[-78.4624,-7.18453],[-78.46226,-7.18432],[-78.46193,-7.18434],[-78.46191,-7.18451],[-78.46207,-7.18476],[-78.46266,-7.18497],[-78.46288,-7.18531],[-78.46302,-7.18542],[-78.46323,-7.18531],[-78.46347,-7.18497],[-78.46425,-7.18481],[-78.46431,-7.18469],[-78.46441,-7.18465],[-78.46587,-7.18479],[-78.46613,-7.1846],[-78.46667,-7.18455],[-78.46681,-7.18448],[-78.46712,-7.18411],[-78.46839,-7.18372],[-78.46858,-7.18347],[-78.4687,-7.18349],[-78.46875,-7.18365],[-78.46884,-7.1837],[-78.46901,-7.18373],[-78.46962,-7.18375],[-78.47005,-7.18359],[-78.47014,-7.18344],[-78.47017,-7.18306],[-78.47024,-7.18292],[-78.47066,-7.18255],[-78.47071,-7.18219],[-78.47092,-7.18205],[-78.47099,-7.18163],[-78.4712,-7.18149],[-78.4713,-7.18108],[-78.47156,-7.18097],[-78.47203,-7.18092],[-78.4721,-7.18075],[-78.47233,-7.18062],[-78.4726,-7.17979],[-78.47267,-7.17965],[-78.47286,-7.17951],[-78.47292,-7.17889],[-78.47302,-7.17854],[-78.47312,-7.17847],[-78.47337,-7.17849],[-78.47352,-7.17873],[-78.4737,-7.17872],[-78.47373,-7.1783],[-78.47349,-7.17814],[-78.47347,-7.17802],[-78.47326,-7.17793],[-78.47257,-7.17788],[-78.47236,-7.17771],[-78.47241,-7.17747],[-78.47252,-7.1774],[-78.47304,-7.17738],[-78.47314,-7.17741],[-78.47321,-7.17759],[-78.4733,-7.17764],[-78.47345,-7.17759],[-78.47345,-7.17741],[-78.47325,-7.17734],[-78.47312,-7.17714],[-78.47215,-7.17703],[-78.47208,-7.17698],[-78.4721,-7.17686],[-78.47231,-7.17677],[-78.4724,-7.17634],[-78.47288,-7.17594],[-78.47297,-7.17575],[-78.4737,-7.17564],[-78.47377,-7.17547],[-78.47392,-7.17542],[-78.47401,-7.17552],[-78.47403,-7.17576],[-78.47413,-7.17594],[-78.47438,-7.17597],[-78.47455,-7.17592],[-78.47457,-7.17575],[-78.47432,-7.17559],[-78.47431,-7.17535],[-78.47441,-7.17512],[-78.47476,-7.1749],[-78.47497,-7.1746],[-78.47531,-7.1746],[-78.47547,-7.17484],[-78.47564,-7.17484],[-78.47571,-7.17464],[-78.47594,-7.17451],[-78.47634,-7.17349],[-78.47668,-7.17316],[-78.4767,-7.17267],[-78.4766,-7.17189],[-78.47663,-7.17181],[-78.47679,-7.17175],[-78.47681,-7.17163],[-78.4767,-7.1716],[-78.47646,-7.1717],[-78.47628,-7.17168],[-78.47628,-7.17135],[-78.47682,-7.17115],[-78.47712,-7.17073],[-78.47734,-7.17064],[-78.47734,-7.17047],[-78.47719,-7.17042],[-78.4771,-7.17026],[-78.47708,-7.1699],[-78.47714,-7.16977],[-78.4774,-7.16979],[-78.47786,-7.17005],[-78.47797,-7.16988],[-78.47814,-7.16983],[-78.47821,-7.16941],[-78.47842,-7.16927],[-78.47849,-7.16885],[-78.4787,-7.16872],[-78.47875,-7.16854],[-78.47875,-7.1684],[-78.47865,-7.16823],[-78.4783,-7.16818],[-78.47819,-7.16802],[-78.47835,-7.16793],[-78.47887,-7.16793],[-78.47903,-7.16802],[-78.47908,-7.16818],[-78.4792,-7.16819],[-78.47929,-7.16799],[-78.47925,-7.16715],[-78.47905,-7.16698],[-78.47898,-7.16656],[-78.4788,-7.16646],[-78.4787,-7.16549],[-78.47849,-7.16531],[-78.47849,-7.16497],[-78.47875,-7.16476],[-78.47873,-7.16464],[-78.47858,-7.16458]],[[-78.4692,-7.18264],[-78.46929,-7.18269],[-78.46931,-7.18281],[-78.46925,-7.1829],[-78.46913,-7.18292],[-78.46905,-7.18286],[-78.46903,-7.18274],[-78.46908,-7.18266],[-78.4692,-7.18264]],[[-78.47448,-7.17403],[-78.47458,-7.17413],[-78.47453,-7.17429],[-78.47413,-7.17431],[-78.47403,-7.1742],[-78.47408,-7.17405],[-78.47448,-7.17403]],[[-78.47476,-7.17375],[-78.47484,-7.1738],[-78.47486,-7.17392],[-78.47481,-7.17401],[-78.47469,-7.17403],[-78.4746,-7.17398],[-78.47458,-7.17385],[-78.47464,-7.17377],[-78.47476,-7.17375]],[[-78.47503,-7.17347],[-78.47512,-7.17352],[-78.47514,-7.17365],[-78.47509,-7.17373],[-78.47497,-7.17375],[-78.47488,-7.1737],[-78.47486,-7.17358],[-78.47491,-7.17349],[-78.47503,-7.17347]],[[-78.47559,-7.17319],[-78.47568,-7.17325],[-78.47569,-7.17337],[-78.47564,-7.17345],[-78.47552,-7.17347],[-78.47543,-7.17342],[-78.47542,-7.1733],[-78.47547,-7.17321],[-78.47559,-7.17319]],[[-78.47615,-7.17319],[-78.47623,-7.17325],[-78.47625,-7.17337],[-78.4762,-7.17345],[-78.47608,-7.17347],[-78.47599,-7.17342],[-78.47597,-7.1733],[-78.47602,-7.17321],[-78.47615,-7.17319]],[[-78.47615,-7.17097],[-78.47623,-7.17102],[-78.47625,-7.17115],[-78.4762,-7.17123],[-78.47608,-7.17125],[-78.47599,-7.1712],[-78.47597,-7.17108],[-78.47602,-7.17099],[-78.47615,-7.17097]],[[-78.47615,-7.17042],[-78.47623,-7.17047],[-78.47625,-7.17059],[-78.4762,-7.17068],[-78.47608,-7.17069],[-78.47599,-7.17064],[-78.47597,-7.17052],[-78.47602,-7.17043],[-78.47615,-7.17042]],[[-78.47753,-7.16875],[-78.47762,-7.1688],[-78.47764,-7.16892],[-78.47759,-7.16901],[-78.47747,-7.16903],[-78.47738,-7.16898],[-78.47736,-7.16885],[-78.47741,-7.16877],[-78.47753,-7.16875]],[[-78.47809,-7.16847],[-78.47819,-7.16858],[-78.47814,-7.16873],[-78.47774,-7.16875],[-78.47764,-7.16865],[-78.47769,-7.16849],[-78.47809,-7.16847]]],[[[-78.52747,-7.11486],[-78.52719,-7.11486],[-78.52714,-7.11493],[-78.52707,-7.11576],[-78.52703,-7.1159],[-78.52686,-7.11608],[-78.52682,-7.11628],[-78.52675,-7.11753],[-78.52655,-7.11774],[-78.52649,-7.11811],[-78.52608,-7.11845],[-78.52597,-7.11882],[-78.52566,-7.1192],[-78.52441,-7.12017],[-78.52431,-7.12035],[-78.52425,-7.12066],[-78.52408,-7.12078],[-78.52399,-7.12184],[-78.52392,-7.12205],[-78.52356,-7.12243],[-78.52345,-7.12271],[-78.52311,-7.12424],[-78.52299,-7.12441],[-78.52274,-7.12457],[-78.52264,-7.12479],[-78.52262,-7.12503],[-78.52241,-7.12523],[-78.52234,-7.12627],[-78.52226,-7.12653],[-78.52214,-7.12661],[-78.5221,-7.12679],[-78.5221,-7.12766],[-78.52214,-7.12783],[-78.52234,-7.12807],[-78.52241,-7.1287],[-78.52259,-7.12878],[-78.52274,-7.12932],[-78.52299,-7.12948],[-78.52321,-7.12977],[-78.52344,-7.13049],[-78.52358,-7.13069],[-78.5237,-7.13073],[-78.52377,-7.13115],[-78.52398,-7.13128],[-78.52405,-7.1317],[-78.5242,-7.13181],[-78.52424,-7.13191],[-78.52406,-7.13316],[-78.5238,-7.13365],[-78.5237,-7.13608],[-78.52365,-7.13625],[-78.52349,-7.1363],[-78.52347,-7.13642],[-78.52358,-7.13651],[-78.52392,-7.13655],[-78.52403,-7.13663],[-78.52401,-7.13675],[-78.52385,-7.13681],[-78.52377,-7.13696],[-78.52377,-7.13748],[-78.52398,-7.13773],[-78.52408,-7.13894],[-78.52425,-7.13906],[-78.52432,-7.13948],[-78.52457,-7.13964],[-78.52458,-7.13976],[-78.52391,-7.14036],[-78.5238,-7.14054],[-78.52372,-7.14109],[-78.52365,-7.1412],[-78.52326,-7.1413],[-78.52312,-7.14141],[-78.52257,-7.14203],[-78.52219,-7.14212],[-78.52201,-7.14255],[-78.52187,-7.14266],[-78.52118,-7.14288],[-78.52089,-7.14314],[-78.51967,-7.14325],[-78.51948,-7.14345],[-78.51913,-7.14349],[-78.51903,-7.14365],[-78.51861,-7.14373],[-78.51722,-7.14373],[-78.51694,-7.1437],[-78.51681,-7.14365],[-78.51672,-7.14352],[-78.51655,-7.14349],[-78.5155,-7.14342],[-78.51542,-7.14337],[-78.51547,-7.14325],[-78.51594,-7.14319],[-78.51615,-7.14309],[-78.51608,-7.14285],[-78.51587,-7.14264],[-78.51566,-7.14274],[-78.51543,-7.14309],[-78.51507,-7.14319],[-78.51498,-7.14304],[-78.51495,-7.14273],[-78.51507,-7.14116],[-78.51503,-7.14069],[-78.51497,-7.14069],[-78.5149,-7.14082],[-78.51483,-7.14106],[-78.5146,-7.14227],[-78.51437,-7.14264],[-78.51408,-7.14257],[-78.51391,-7.14243],[-78.51351,-7.14194],[-78.51304,-7.14155],[-78.51229,-7.14128],[-78.51215,-7.14122],[-78.51208,-7.14108],[-78.51172,-7.14099],[-78.51087,-7.14097],[-78.51016,-7.14113],[-78.50993,-7.14128],[-78.50957,-7.14175],[-78.50932,-7.14186],[-78.50931,-7.14198],[-78.50884,-7.14207],[-78.50696,-7.14203],[-78.50681,-7.14198],[-78.50675,-7.14186],[-78.50613,-7.14179],[-78.50602,-7.14175],[-78.50597,-7.14163],[-78.50556,-7.14155],[-78.50389,-7.14158],[-78.50375,-7.14163],[-78.5037,-7.14175],[-78.50307,-7.14182],[-78.50297,-7.14186],[-78.50292,-7.14198],[-78.50269,-7.14205],[-78.50066,-7.14226],[-78.49943,-7.1425],[-78.4991,-7.14267],[-78.49868,-7.14314],[-78.49823,-7.14325],[-78.49814,-7.14342],[-78.49752,-7.14345],[-78.49736,-7.14337],[-78.49731,-7.14321],[-78.49719,-7.14319],[-78.49677,-7.14365],[-78.49628,-7.14375],[-78.4955,-7.1438],[-78.49538,-7.14396],[-78.49497,-7.14378],[-78.49481,-7.14352],[-78.49418,-7.14345],[-78.49408,-7.14342],[-78.49396,-7.14325],[-78.49299,-7.14314],[-78.49286,-7.14297],[-78.49224,-7.1429],[-78.49214,-7.14286],[-78.49205,-7.14271],[-78.49156,-7.14285],[-78.49148,-7.14266],[-78.4913,-7.14266],[-78.49122,-7.14286],[-78.4908,-7.14293],[-78.49064,-7.14318],[-78.49047,-7.14323],[-78.49036,-7.14372],[-78.49019,-7.14377],[-78.49005,-7.14399],[-78.48884,-7.14434],[-78.48865,-7.14457],[-78.48823,-7.14464],[-78.48816,-7.14479],[-78.48785,-7.14469],[-78.48767,-7.1447],[-78.48759,-7.1451],[-78.48741,-7.14516],[-78.48726,-7.1454],[-78.48691,-7.1454],[-78.4867,-7.1451],[-78.48635,-7.14497],[-78.48625,-7.14517],[-78.4862,-7.14564],[-78.48602,-7.14571],[-78.48597,-7.1458],[-78.48599,-7.14592],[-78.4862,-7.14599],[-78.48625,-7.14615],[-78.48615,-7.14623],[-78.4858,-7.14623],[-78.48564,-7.14599],[-78.48552,-7.14597],[-78.48543,-7.14613],[-78.4854,-7.14665],[-78.48531,-7.14681],[-78.48516,-7.1467],[-78.48514,-7.14646],[-78.48503,-7.14623],[-78.48479,-7.14608],[-78.48462,-7.14609],[-78.48462,-7.14644],[-78.4851,-7.14684],[-78.48514,-7.14698],[-78.48498,-7.14707],[-78.48436,-7.14714],[-78.48425,-7.14734],[-78.48408,-7.1474],[-78.48399,-7.1478],[-78.48382,-7.14781],[-78.48351,-7.14771],[-78.48342,-7.1479],[-78.48325,-7.14795],[-78.48318,-7.14837],[-78.48297,-7.14851],[-78.4829,-7.14892],[-78.48274,-7.14903],[-78.48266,-7.14929],[-78.48266,-7.15016],[-78.48274,-7.15042],[-78.4829,-7.15047],[-78.48292,-7.15059],[-78.48224,-7.15118],[-78.48208,-7.15146],[-78.48214,-7.15177],[-78.48231,-7.15182],[-78.48236,-7.15198],[-78.48215,-7.15217],[-78.48146,-7.15255],[-78.48125,-7.15274],[-78.4812,-7.1529],[-78.48102,-7.15297],[-78.48095,-7.15359],[-78.48092,-7.1537],[-78.48071,-7.15385],[-78.48066,-7.1542],[-78.48049,-7.15431],[-78.48017,-7.15436],[-78.48012,-7.15453],[-78.47997,-7.15458],[-78.47988,-7.1549],[-78.47986,-7.15563],[-78.47976,-7.15615],[-78.47965,-7.15625],[-78.47951,-7.15625],[-78.47931,-7.15615],[-78.47936,-7.15599],[-78.47953,-7.15594],[-78.47958,-7.15576],[-78.47953,-7.15545],[-78.47936,-7.15543],[-78.47929,-7.15564],[-78.47908,-7.15575],[-78.47898,-7.15637],[-78.47872,-7.15653],[-78.47835,-7.15658],[-78.47825,-7.15668],[-78.47821,-7.1572],[-78.4783,-7.15736],[-78.47845,-7.15741],[-78.47847,-7.15753],[-78.47837,-7.15762],[-78.47802,-7.15766],[-78.47792,-7.15781],[-78.47802,-7.1579],[-78.47837,-7.1579],[-78.47852,-7.15766],[-78.47865,-7.15764],[-78.47873,-7.15774],[-78.47875,-7.15799],[-78.47859,-7.15816],[-78.47807,-7.15821],[-78.47797,-7.15825],[-78.47792,-7.15837],[-78.47807,-7.15845],[-78.4787,-7.15852],[-78.47875,-7.15865],[-78.47828,-7.15884],[-78.47809,-7.15927],[-78.47788,-7.16005],[-78.47766,-7.16019],[-78.47764,-7.16031],[-78.47774,-7.16035],[-78.47799,-7.16024],[-78.47807,-7.16031],[-78.47811,-7.16052],[-78.47799,-7.16196],[-78.47814,-7.16222],[-78.47821,-7.16389],[-78.4783,-7.16431],[-78.47851,-7.1642],[-78.47868,-7.16385],[-78.47849,-7.16359],[-78.47851,-7.16307],[-78.47868,-7.16292],[-78.47892,-7.16288],[-78.47903,-7.16271],[-78.47899,-7.16247],[-78.47892,-7.1624],[-78.47868,-7.16236],[-78.47856,-7.16226],[-78.47868,-7.16184],[-78.47852,-7.16175],[-78.47847,-7.16128],[-78.47858,-7.16102],[-78.47899,-7.16092],[-78.47903,-7.1608],[-78.47892,-7.16071],[-78.47858,-7.16064],[-78.47851,-7.16054],[-78.47847,-7.16017],[-78.47852,-7.15991],[-78.4787,-7.15983],[-78.47877,-7.15941],[-78.47898,-7.15927],[-78.47905,-7.15885],[-78.47913,-7.15875],[-78.47925,-7.15878],[-78.47931,-7.1591],[-78.47941,-7.15927],[-78.47974,-7.15934],[-78.47976,-7.15951],[-78.47965,-7.15983],[-78.47984,-7.15991],[-78.47991,-7.16012],[-78.48009,-7.1601],[-78.48019,-7.15962],[-78.4804,-7.15953],[-78.48038,-7.15936],[-78.48007,-7.15931],[-78.4799,-7.1592],[-78.47986,-7.15896],[-78.47976,-7.15878],[-78.47941,-7.15872],[-78.47934,-7.15865],[-78.47932,-7.1583],[-78.47957,-7.15814],[-78.47958,-7.15802],[-78.47948,-7.15799],[-78.47924,-7.15809],[-78.47906,-7.15807],[-78.47905,-7.15774],[-78.47929,-7.15759],[-78.47931,-7.15747],[-78.47925,-7.15738],[-78.47908,-7.15733],[-78.47903,-7.15701],[-78.47913,-7.15689],[-78.47948,-7.157],[-78.47955,-7.15696],[-78.4796,-7.15663],[-78.47976,-7.15653],[-78.47984,-7.15663],[-78.47988,-7.15698],[-78.48003,-7.15708],[-78.48012,-7.15677],[-78.48016,-7.15573],[-78.48024,-7.15542],[-78.4804,-7.15552],[-78.48045,-7.15585],[-78.48062,-7.15587],[-78.48094,-7.15576],[-78.48102,-7.15595],[-78.48123,-7.15592],[-78.48123,-7.15575],[-78.48099,-7.15559],[-78.48092,-7.15517],[-78.48071,-7.15503],[-78.48073,-7.15467],[-78.48116,-7.15427],[-78.48161,-7.153],[-78.4821,-7.15281],[-78.48233,-7.15247],[-78.48259,-7.15229],[-78.48267,-7.15144],[-78.48274,-7.15127],[-78.48307,-7.15094],[-78.48304,-7.14967],[-78.48312,-7.14958],[-78.48335,-7.14955],[-78.48339,-7.14948],[-78.48326,-7.14906],[-78.48342,-7.14899],[-78.48358,-7.14845],[-78.48392,-7.14826],[-78.48403,-7.1483],[-78.48408,-7.14842],[-78.48434,-7.14847],[-78.48486,-7.14837],[-78.4851,-7.14802],[-78.48536,-7.1479],[-78.48542,-7.14781],[-78.4854,-7.14769],[-78.48516,-7.14753],[-78.48519,-7.14712],[-78.48536,-7.1471],[-78.48552,-7.14734],[-78.48585,-7.14733],[-78.48587,-7.14715],[-78.48576,-7.14684],[-78.48595,-7.14675],[-78.48602,-7.14655],[-78.4862,-7.14655],[-78.48625,-7.1467],[-78.48641,-7.14679],[-78.48693,-7.14677],[-78.48708,-7.1466],[-78.48714,-7.14628],[-78.48734,-7.1462],[-78.48741,-7.14599],[-78.48759,-7.14601],[-78.48764,-7.14632],[-78.48774,-7.14649],[-78.48809,-7.14655],[-78.48825,-7.14679],[-78.48837,-7.14681],[-78.48835,-7.14665],[-78.488,-7.14613],[-78.48769,-7.14594],[-78.48764,-7.14563],[-78.48771,-7.14552],[-78.48806,-7.14542],[-78.48868,-7.14536],[-78.4888,-7.14516],[-78.48898,-7.1451],[-78.48903,-7.14479],[-78.48911,-7.14467],[-78.49033,-7.14422],[-78.49042,-7.1441],[-78.49047,-7.14378],[-78.49066,-7.14372],[-78.49087,-7.1434],[-78.49102,-7.1433],[-78.4916,-7.14319],[-78.49253,-7.14325],[-78.49271,-7.14342],[-78.49285,-7.14345],[-78.49368,-7.14352],[-78.49385,-7.14373],[-78.49427,-7.1438],[-78.49441,-7.14401],[-78.49483,-7.14408],[-78.49491,-7.14425],[-78.49538,-7.14431],[-78.49564,-7.14425],[-78.49569,-7.14413],[-78.49587,-7.14406],[-78.4983,-7.14372],[-78.49847,-7.14365],[-78.49858,-7.14349],[-78.49882,-7.14347],[-78.49905,-7.14337],[-78.49934,-7.14295],[-78.49953,-7.1429],[-78.49958,-7.14274],[-78.49979,-7.14267],[-78.50271,-7.14233],[-78.50292,-7.14226],[-78.50297,-7.14214],[-78.50307,-7.1421],[-78.5037,-7.14203],[-78.50375,-7.14191],[-78.50387,-7.14186],[-78.50533,-7.14182],[-78.50569,-7.14191],[-78.50575,-7.14203],[-78.50585,-7.14207],[-78.50648,-7.14214],[-78.50653,-7.14226],[-78.50672,-7.14231],[-78.50844,-7.14236],[-78.50906,-7.14229],[-78.50955,-7.14215],[-78.5099,-7.14194],[-78.51035,-7.14146],[-78.51094,-7.14125],[-78.51128,-7.14125],[-78.51172,-7.1413],[-78.51201,-7.14156],[-78.51274,-7.14181],[-78.51312,-7.14212],[-78.5134,-7.14248],[-78.51368,-7.14264],[-78.51396,-7.14269],[-78.51451,-7.14332],[-78.51479,-7.14347],[-78.5151,-7.14352],[-78.51523,-7.1437],[-78.51627,-7.14377],[-78.51644,-7.1438],[-78.51663,-7.14398],[-78.51684,-7.14401],[-78.51809,-7.14408],[-78.51819,-7.14413],[-78.51823,-7.14425],[-78.51854,-7.14431],[-78.51872,-7.14425],[-78.51885,-7.14405],[-78.51927,-7.14398],[-78.51941,-7.14377],[-78.51983,-7.1437],[-78.51986,-7.14358],[-78.51998,-7.14351],[-78.52108,-7.1433],[-78.52179,-7.14306],[-78.52243,-7.14241],[-78.52285,-7.14231],[-78.52299,-7.1422],[-78.5234,-7.14167],[-78.52394,-7.14127],[-78.52427,-7.1408],[-78.52455,-7.14061],[-78.52476,-7.13983],[-78.52479,-7.13939],[-78.5246,-7.1392],[-78.52453,-7.13878],[-78.52437,-7.13872],[-78.52451,-7.13823],[-78.52441,-7.13819],[-78.52432,-7.13804],[-78.52425,-7.13741],[-78.52408,-7.13734],[-78.52403,-7.13726],[-78.52405,-7.13714],[-78.5242,-7.13708],[-78.52424,-7.137],[-78.5241,-7.13578],[-78.52429,-7.13559],[-78.52431,-7.13535],[-78.52425,-7.13517],[-78.52408,-7.13512],[-78.52403,-7.13497],[-78.52408,-7.13488],[-78.52425,-7.13483],[-78.52431,-7.13451],[-78.52425,-7.13434],[-78.52408,-7.13425],[-78.52403,-7.13378],[-78.52408,-7.13352],[-78.52429,-7.13337],[-78.52436,-7.13295],[-78.52453,-7.13283],[-78.52458,-7.13205],[-78.52453,-7.13161],[-78.52432,-7.13142],[-78.52425,-7.13101],[-78.52405,-7.13087],[-78.52398,-7.13045],[-78.52377,-7.13031],[-78.5237,-7.1299],[-78.52352,-7.12983],[-78.52344,-7.12939],[-78.52302,-7.12903],[-78.52295,-7.12889],[-78.52286,-7.12825],[-78.52269,-7.12816],[-78.52262,-7.12774],[-78.52241,-7.12759],[-78.52238,-7.12748],[-78.52238,-7.12696],[-78.52259,-7.12672],[-78.52269,-7.1255],[-78.52286,-7.12538],[-78.52302,-7.12484],[-78.52326,-7.12469],[-78.52344,-7.12444],[-78.52349,-7.12391],[-78.52352,-7.1238],[-78.5237,-7.12368],[-78.52373,-7.12354],[-78.52378,-7.12283],[-78.52396,-7.12253],[-78.5242,-7.12236],[-78.52436,-7.12158],[-78.52453,-7.12151],[-78.52458,-7.12142],[-78.52453,-7.12127],[-78.52432,-7.1212],[-78.52432,-7.12102],[-78.52453,-7.12094],[-78.5246,-7.12052],[-78.52481,-7.12038],[-78.5249,-7.11997],[-78.52543,-7.11976],[-78.52573,-7.11934],[-78.52601,-7.1192],[-78.52628,-7.11878],[-78.52648,-7.11872],[-78.52655,-7.1183],[-78.52675,-7.11816],[-78.52682,-7.11774],[-78.52703,-7.11755],[-78.52714,-7.11634],[-78.52731,-7.11618],[-78.52734,-7.11604],[-78.52741,-7.11521],[-78.52764,-7.11503],[-78.52762,-7.11491],[-78.52747,-7.11486]],[[-78.47837,-7.15931],[-78.47845,-7.15936],[-78.47847,-7.15948],[-78.47842,-7.15957],[-78.4783,-7.15958],[-78.47821,-7.15953],[-78.47819,-7.15941],[-78.47825,-7.15932],[-78.47837,-7.15931]],[[-78.47865,-7.15903],[-78.47873,-7.15908],[-78.47875,-7.1592],[-78.4787,-7.15929],[-78.47858,-7.15931],[-78.47849,-7.15925],[-78.47847,-7.15913],[-78.47852,-7.15905],[-78.47865,-7.15903]],[[-78.48476,-7.14792],[-78.48484,-7.14797],[-78.48486,-7.14809],[-78.48481,-7.14818],[-78.48469,-7.14819],[-78.4846,-7.14814],[-78.48458,-7.14802],[-78.48464,-7.14793],[-78.48476,-7.14792]]]]}},{"type":"Feature","properties":{"clave":"mashcon:indeci2005:menor:norte","tipo":"estudio","subtipo":"menor","orden":4,"nombre":"Zona de inundación (estudio INDECI-PNUD 2005)","texto":"Zona que el mapa de inundaciones del estudio INDECI-PNUD de 2005 marcó junto al río Mashcón en el tramo norte (puente Moyococha, margen derecha: lotizaciones Mayopata y El Bosque). SIMPAC pasó el mapa (una imagen) a coordenadas: puede correrse de 30 a 60 m.","fuente":"INDECI-PNUD PER/02/051 (dic. 2005), Programa de Prevención y Medidas de Mitigación ante Desastres de la Ciudad de Cajamarca, Lámina 19 'Inundaciones' (1:27 000)","fuente_url":"https://sigrid.cenepred.gob.pe/sigridv3/storage/biblioteca/5225_programa-de-prevencion-y-medidas-de-mitigacion-ante-desastres-de-la-ciudad-de-cajamarca.pdf","licencia":"Información pública del Estado peruano (citar la fuente)","atribucion":"Fuente: INDECI-PNUD (2005), Lámina 19. Digitalizado por SIMPAC.","metodo":"Digitalización por color de la lámina escaneada, georreferenciada con su cuadrícula UTM y corrida 90 m al oeste y 160 m al sur para calzar con el río en OSM (la distancia típica al río bajó de 121 m a 10 m). Error esperado 30-60 m.","fecha_fuente":"2005-12","area_km2":0.37},"geometry":{"type":"MultiPolygon","coordinates":[[[[-78.52172,-7.14299],[-78.52136,-7.14306],[-78.52101,-7.14363],[-78.52058,-7.14327],[-78.51973,-7.14369],[-78.51706,-7.14318],[-78.51663,-7.14339],[-78.5162,-7.1448],[-78.51669,-7.14523],[-78.51726,-7.14516],[-78.51754,-7.1453],[-78.51768,-7.1458],[-78.51697,-7.14678],[-78.51781,-7.14763],[-78.51788,-7.14799],[-78.51717,-7.14848],[-78.51596,-7.14967],[-78.51582,-7.15009],[-78.51561,-7.15016],[-78.51539,-7.15073],[-78.51546,-7.15101],[-78.51518,-7.15143],[-78.51532,-7.15171],[-78.51602,-7.15193],[-78.51836,-7.15025],[-78.51886,-7.14954],[-78.51879,-7.14919],[-78.51893,-7.14891],[-78.51936,-7.14842],[-78.5195,-7.14708],[-78.52008,-7.14588],[-78.52099,-7.14567],[-78.5217,-7.14589],[-78.52191,-7.14617],[-78.52276,-7.14618],[-78.52318,-7.14597],[-78.52347,-7.14547],[-78.52417,-7.14505],[-78.52418,-7.14463],[-78.52354,-7.14399],[-78.52291,-7.14363],[-78.522,-7.14342],[-78.52172,-7.14299]]]]}},{"type":"Feature","properties":{"clave":"mashcon:indeci2005:menor:confluencia","tipo":"estudio","subtipo":"menor","orden":4,"nombre":"Zona de inundación (estudio INDECI-PNUD 2005)","texto":"Zona que el mapa de inundaciones del estudio INDECI-PNUD de 2005 marcó junto al río Mashcón en su unión con el río San Lucas (vía a Los Baños del Inca). SIMPAC pasó el mapa (una imagen) a coordenadas: puede correrse de 30 a 60 m.","fuente":"INDECI-PNUD PER/02/051 (dic. 2005), Programa de Prevención y Medidas de Mitigación ante Desastres de la Ciudad de Cajamarca, Lámina 19 'Inundaciones' (1:27 000)","fuente_url":"https://sigrid.cenepred.gob.pe/sigridv3/storage/biblioteca/5225_programa-de-prevencion-y-medidas-de-mitigacion-ante-desastres-de-la-ciudad-de-cajamarca.pdf","licencia":"Información pública del Estado peruano (citar la fuente)","atribucion":"Fuente: INDECI-PNUD (2005), Lámina 19. Digitalizado por SIMPAC.","metodo":"Digitalización por color de la lámina escaneada, georreferenciada con su cuadrícula UTM y corrida 90 m al oeste y 160 m al sur para calzar con el río en OSM (la distancia típica al río bajó de 121 m a 10 m). Error esperado 30-60 m.","fecha_fuente":"2005-12","area_km2":0.087},"geometry":{"type":"MultiPolygon","coordinates":[[[[-78.47953,-7.16395],[-78.47834,-7.16394],[-78.47812,-7.16408],[-78.47804,-7.16577],[-78.47846,-7.16634],[-78.48009,-7.16593],[-78.48115,-7.16593],[-78.48143,-7.16579],[-78.48193,-7.1653],[-78.48207,-7.16488],[-78.4813,-7.16424],[-78.48031,-7.16423],[-78.47953,-7.16395]]]]}},{"type":"Feature","properties":{"clave":"mashcon:indeci2005:mayor:norte","tipo":"estudio","subtipo":"mayor","orden":5,"nombre":"Zona de mayor inundación (estudio INDECI-PNUD 2005)","texto":"Zona que el mapa de inundaciones del estudio INDECI-PNUD de 2005 marcó junto al río Mashcón en el tramo norte (puente Moyococha, margen derecha: lotizaciones Mayopata y El Bosque). SIMPAC pasó el mapa (una imagen) a coordenadas: puede correrse de 30 a 60 m.","fuente":"INDECI-PNUD PER/02/051 (dic. 2005), Programa de Prevención y Medidas de Mitigación ante Desastres de la Ciudad de Cajamarca, Lámina 19 'Inundaciones' (1:27 000)","fuente_url":"https://sigrid.cenepred.gob.pe/sigridv3/storage/biblioteca/5225_programa-de-prevencion-y-medidas-de-mitigacion-ante-desastres-de-la-ciudad-de-cajamarca.pdf","licencia":"Información pública del Estado peruano (citar la fuente)","atribucion":"Fuente: INDECI-PNUD (2005), Lámina 19. Digitalizado por SIMPAC.","metodo":"Digitalización por color de la lámina escaneada, georreferenciada con su cuadrícula UTM y corrida 90 m al oeste y 160 m al sur para calzar con el río en OSM (la distancia típica al río bajó de 121 m a 10 m). Error esperado 30-60 m.","fecha_fuente":"2005-12","area_km2":0.048},"geometry":{"type":"MultiPolygon","coordinates":[[[[-78.51706,-7.14318],[-78.51663,-7.14332],[-78.51642,-7.14395],[-78.51663,-7.14445],[-78.51867,-7.14481],[-78.51917,-7.14467],[-78.51987,-7.14433],[-78.51981,-7.14376],[-78.51706,-7.14318]]]]}},{"type":"Feature","properties":{"clave":"mashcon:indeci2005:mayor:confluencia","tipo":"estudio","subtipo":"mayor","orden":5,"nombre":"Zona de mayor inundación (estudio INDECI-PNUD 2005)","texto":"Zona que el mapa de inundaciones del estudio INDECI-PNUD de 2005 marcó junto al río Mashcón en su unión con el río San Lucas (vía a Los Baños del Inca). SIMPAC pasó el mapa (una imagen) a coordenadas: puede correrse de 30 a 60 m.","fuente":"INDECI-PNUD PER/02/051 (dic. 2005), Programa de Prevención y Medidas de Mitigación ante Desastres de la Ciudad de Cajamarca, Lámina 19 'Inundaciones' (1:27 000)","fuente_url":"https://sigrid.cenepred.gob.pe/sigridv3/storage/biblioteca/5225_programa-de-prevencion-y-medidas-de-mitigacion-ante-desastres-de-la-ciudad-de-cajamarca.pdf","licencia":"Información pública del Estado peruano (citar la fuente)","atribucion":"Fuente: INDECI-PNUD (2005), Lámina 19. Digitalizado por SIMPAC.","metodo":"Digitalización por color de la lámina escaneada, georreferenciada con su cuadrícula UTM y corrida 90 m al oeste y 160 m al sur para calzar con el río en OSM (la distancia típica al río bajó de 121 m a 10 m). Error esperado 30-60 m.","fecha_fuente":"2005-12","area_km2":0.084},"geometry":{"type":"MultiPolygon","coordinates":[[[[-78.47953,-7.16395],[-78.47848,-7.16394],[-78.47812,-7.16415],[-78.47811,-7.1657],[-78.47825,-7.16613],[-78.47853,-7.16627],[-78.48016,-7.16586],[-78.48108,-7.16593],[-78.4815,-7.16579],[-78.48207,-7.16495],[-78.48151,-7.16431],[-78.48031,-7.16423],[-78.47953,-7.16395]]]]}}]}